{
"type": "FeatureCollection",
"name": "49",
"crs": { "type": "name", "properties": { "name": "urn:ogc:def:crs:OGC:1.3:CRS84" } },
"features": [
{ "type": "Feature", "properties": { "full_id": "w560894801", "osm_id": "560894801", "osm_type": "way", "change:lanes": null, "source:hgv": null, "hgv": null, "destination:ref": null, "destination": null, "maxheight:signed": null, "turn:lanes": null, "destination:lanes": null, "surface": null, "layer": null, "bridge": null, "ref": "I 49;US 71", "oneway": "yes", "noname": "yes", "minspeed": "40 mph", "maxspeed:type": "sign", "maxspeed": "65 mph", "maxheight": "15'7\"", "lanes": "3", "highway": "motorway" }, "geometry": { "type": "LineString", "coordinates": [ [ -94.5267206, 38.8654152 ], [ -94.5266918, 38.8657809 ], [ -94.5265074, 38.8688937 ], [ -94.526289, 38.8718541 ], [ -94.5262227, 38.8728543 ], [ -94.5260069, 38.8759491 ] ] } },
{ "type": "Feature", "properties": { "full_id": "w560894802", "osm_id": "560894802", "osm_type": "way", "change:lanes": null, "source:hgv": null, "hgv": null, "destination:ref": null, "destination": null, "maxheight:signed": null, "turn:lanes": null, "destination:lanes": null, "surface": null, "layer": "1", "bridge": "yes", "ref": "I 49;US 71", "oneway": "yes", "noname": "yes", "minspeed": "40 mph", "maxspeed:type": "sign", "maxspeed": "65 mph", "maxheight": null, "lanes": "3", "highway": "motorway" }, "geometry": { "type": "LineString", "coordinates": [ [ -94.5280673, 38.8573023 ], [ -94.5277975, 38.8585317 ] ] } },
{ "type": "Feature", "properties": { "full_id": "w560894803", "osm_id": "560894803", "osm_type": "way", "change:lanes": null, "source:hgv": null, "hgv": null, "destination:ref": null, "destination": null, "maxheight:signed": null, "turn:lanes": null, "destination:lanes": null, "surface": "concrete", "layer": null, "bridge": null, "ref": "I 49;US 71", "oneway": "yes", "noname": "yes", "minspeed": "40 mph", "maxspeed:type": null, "maxspeed": "65 mph", "maxheight": null, "lanes": "3", "highway": "motorway" }, "geometry": { "type": "LineString", "coordinates": [ [ -94.5282509, 38.8573281 ], [ -94.5283608, 38.8567685 ], [ -94.5284638, 38.8562733 ], [ -94.5285306, 38.8558865 ], [ -94.5285732, 38.8556142 ], [ -94.5286255, 38.8552166 ], [ -94.5286615, 38.8548929 ], [ -94.5287033, 38.8545322 ] ] } },
{ "type": "Feature", "properties": { "full_id": "w560894804", "osm_id": "560894804", "osm_type": "way", "change:lanes": null, "source:hgv": null, "hgv": null, "destination:ref": null, "destination": null, "maxheight:signed": null, "turn:lanes": null, "destination:lanes": null, "surface": null, "layer": "1", "bridge": "yes", "ref": "I 49;US 71", "oneway": "yes", "noname": "yes", "minspeed": "40 mph", "maxspeed:type": null, "maxspeed": "65 mph", "maxheight": null, "lanes": "3", "highway": "motorway" }, "geometry": { "type": "LineString", "coordinates": [ [ -94.5279764, 38.8585526 ], [ -94.5282509, 38.8573281 ] ] } },
{ "type": "Feature", "properties": { "full_id": "w560894805", "osm_id": "560894805", "osm_type": "way", "change:lanes": null, "source:hgv": null, "hgv": null, "destination:ref": null, "destination": null, "maxheight:signed": null, "turn:lanes": "||through;slight_right", "destination:lanes": "||140th Street;none", "surface": "asphalt", "layer": null, "bridge": null, "ref": "I 49;US 71", "oneway": "yes", "noname": "yes", "minspeed": "40 mph", "maxspeed:type": "sign", "maxspeed": "65 mph", "maxheight": null, "lanes": "3", "highway": "motorway" }, "geometry": { "type": "LineString", "coordinates": [ [ -94.5286325, 38.8531844 ], [ -94.5285809, 38.8538229 ] ] } },
{ "type": "Feature", "properties": { "full_id": "w560894806", "osm_id": "560894806", "osm_type": "way", "change:lanes": null, "source:hgv": null, "hgv": null, "destination:ref": null, "destination": null, "maxheight:signed": null, "turn:lanes": null, "destination:lanes": null, "surface": "concrete", "layer": "1", "bridge": "yes", "ref": "I 49;US 71", "oneway": "yes", "noname": "yes", "minspeed": "40 mph", "maxspeed:type": "sign", "maxspeed": "65 mph", "maxheight": null, "lanes": "3", "highway": "motorway" }, "geometry": { "type": "LineString", "coordinates": [ [ -94.528654, 38.8529309 ], [ -94.5286325, 38.8531844 ] ] } },
{ "type": "Feature", "properties": { "full_id": "w560894807", "osm_id": "560894807", "osm_type": "way", "change:lanes": null, "source:hgv": null, "hgv": null, "destination:ref": null, "destination": null, "maxheight:signed": null, "turn:lanes": "merge_to_right||through;slight_right", "destination:lanes": "Joplin|Joplin|Joplin;163rd Street;155th Street;Belton", "surface": "asphalt", "layer": null, "bridge": null, "ref": "I 49;US 71", "oneway": "yes", "noname": "yes", "minspeed": "40 mph", "maxspeed:type": null, "maxspeed": "65 mph", "maxheight": null, "lanes": "3", "highway": "motorway" }, "geometry": { "type": "LineString", "coordinates": [ [ -94.5288338, 38.8529356 ], [ -94.5291319, 38.8494501 ], [ -94.5291997, 38.8486374 ], [ -94.5293559, 38.8467541 ] ] } },
{ "type": "Feature", "properties": { "full_id": "w560894808", "osm_id": "560894808", "osm_type": "way", "change:lanes": null, "source:hgv": null, "hgv": null, "destination:ref": null, "destination": null, "maxheight:signed": null, "turn:lanes": null, "destination:lanes": null, "surface": "concrete", "layer": "1", "bridge": "yes", "ref": "I 49;US 71", "oneway": "yes", "noname": "yes", "minspeed": "40 mph", "maxspeed:type": null, "maxspeed": "65 mph", "maxheight": null, "lanes": "3", "highway": "motorway" }, "geometry": { "type": "LineString", "coordinates": [ [ -94.528811, 38.8531851 ], [ -94.5288338, 38.8529356 ] ] } },
{ "type": "Feature", "properties": { "full_id": "w560894814", "osm_id": "560894814", "osm_type": "way", "change:lanes": null, "source:hgv": null, "hgv": null, "destination:ref": null, "destination": null, "maxheight:signed": null, "turn:lanes": null, "destination:lanes": null, "surface": null, "layer": null, "bridge": null, "ref": "I 49;US 71", "oneway": "yes", "noname": "yes", "minspeed": "40 mph", "maxspeed:type": null, "maxspeed": "65 mph", "maxheight": null, "lanes": "4", "highway": "motorway" }, "geometry": { "type": "LineString", "coordinates": [ [ -94.5259704, 38.8790284 ], [ -94.5261819, 38.876666 ] ] } },
{ "type": "Feature", "properties": { "full_id": "w560894815", "osm_id": "560894815", "osm_type": "way", "change:lanes": null, "source:hgv": null, "hgv": null, "destination:ref": null, "destination": null, "maxheight:signed": null, "turn:lanes": null, "destination:lanes": null, "surface": null, "layer": null, "bridge": null, "ref": "I 49;US 71", "oneway": "yes", "noname": "yes", "minspeed": "40 mph", "maxspeed:type": null, "maxspeed": "65 mph", "maxheight": null, "lanes": "3", "highway": "motorway" }, "geometry": { "type": "LineString", "coordinates": [ [ -94.5261819, 38.876666 ], [ -94.5262311, 38.8755037 ], [ -94.5264515, 38.8720409 ], [ -94.5268096, 38.867148 ], [ -94.5270384, 38.8638007 ], [ -94.5270974, 38.863277 ], [ -94.5272614, 38.8622264 ] ] } },
{ "type": "Feature", "properties": { "full_id": "w560894819", "osm_id": "560894819", "osm_type": "way", "change:lanes": null, "source:hgv": null, "hgv": null, "destination:ref": null, "destination": null, "maxheight:signed": "no", "turn:lanes": null, "destination:lanes": null, "surface": null, "layer": null, "bridge": null, "ref": "I 49;US 71", "oneway": "yes", "noname": "yes", "minspeed": "40 mph", "maxspeed:type": null, "maxspeed": "65 mph", "maxheight": null, "lanes": "3", "highway": "motorway" }, "geometry": { "type": "LineString", "coordinates": [ [ -94.5248678, 38.8946123 ], [ -94.5256598, 38.8832281 ], [ -94.525801, 38.8812113 ] ] } },
{ "type": "Feature", "properties": { "full_id": "w560894823", "osm_id": "560894823", "osm_type": "way", "change:lanes": null, "source:hgv": null, "hgv": null, "destination:ref": null, "destination": null, "maxheight:signed": null, "turn:lanes": null, "destination:lanes": null, "surface": null, "layer": "1", "bridge": "yes", "ref": "I 49;US 71", "oneway": "yes", "noname": "yes", "minspeed": "40 mph", "maxspeed:type": "sign", "maxspeed": "65 mph", "maxheight": null, "lanes": "3", "highway": "motorway" }, "geometry": { "type": "LineString", "coordinates": [ [ -94.5245324, 38.8967105 ], [ -94.5244972, 38.8972281 ] ] } },
{ "type": "Feature", "properties": { "full_id": "w560894824", "osm_id": "560894824", "osm_type": "way", "change:lanes": null, "source:hgv": null, "hgv": null, "destination:ref": null, "destination": null, "maxheight:signed": "no", "turn:lanes": null, "destination:lanes": null, "surface": null, "layer": null, "bridge": null, "ref": "I 49;US 71", "oneway": "yes", "noname": "yes", "minspeed": "40 mph", "maxspeed:type": "sign", "maxspeed": "65 mph", "maxheight": null, "lanes": "3", "highway": "motorway" }, "geometry": { "type": "LineString", "coordinates": [ [ -94.5243365, 38.8994121 ], [ -94.5237454, 38.9078588 ], [ -94.5236701, 38.9091155 ] ] } },
{ "type": "Feature", "properties": { "full_id": "w560894825", "osm_id": "560894825", "osm_type": "way", "change:lanes": null, "source:hgv": null, "hgv": null, "destination:ref": null, "destination": null, "maxheight:signed": null, "turn:lanes": null, "destination:lanes": null, "surface": null, "layer": null, "bridge": null, "ref": "I 49;US 71", "oneway": "yes", "noname": "yes", "minspeed": "40 mph", "maxspeed:type": null, "maxspeed": "65 mph", "maxheight": null, "lanes": "4", "highway": "motorway" }, "geometry": { "type": "LineString", "coordinates": [ [ -94.5245663, 38.8993283 ], [ -94.5247171, 38.8972531 ] ] } },
{ "type": "Feature", "properties": { "full_id": "w560894826", "osm_id": "560894826", "osm_type": "way", "change:lanes": null, "source:hgv": null, "hgv": null, "destination:ref": null, "destination": null, "maxheight:signed": null, "turn:lanes": "|||slight_right", "destination:lanes": "Joplin|Joplin|Joplin;140th Street|Main Street", "surface": null, "layer": null, "bridge": null, "ref": "I 49;US 71", "oneway": "yes", "noname": "yes", "minspeed": "40 mph", "maxspeed:type": null, "maxspeed": "65 mph", "maxheight": null, "lanes": "4", "highway": "motorway" }, "geometry": { "type": "LineString", "coordinates": [ [ -94.5247426, 38.8967213 ], [ -94.5248678, 38.8946123 ] ] } },
{ "type": "Feature", "properties": { "full_id": "w560894827", "osm_id": "560894827", "osm_type": "way", "change:lanes": null, "source:hgv": null, "hgv": null, "destination:ref": null, "destination": null, "maxheight:signed": null, "turn:lanes": null, "destination:lanes": null, "surface": null, "layer": "1", "bridge": "yes", "ref": "I 49;US 71", "oneway": "yes", "noname": "yes", "minspeed": "40 mph", "maxspeed:type": null, "maxspeed": "65 mph", "maxheight": null, "lanes": "4", "highway": "motorway" }, "geometry": { "type": "LineString", "coordinates": [ [ -94.5247171, 38.8972531 ], [ -94.5247426, 38.8967213 ] ] } },
{ "type": "Feature", "properties": { "full_id": "w560894828", "osm_id": "560894828", "osm_type": "way", "change:lanes": null, "source:hgv": null, "hgv": null, "destination:ref": null, "destination": null, "maxheight:signed": "no", "turn:lanes": null, "destination:lanes": null, "surface": null, "layer": null, "bridge": null, "ref": "I 49;US 71", "oneway": "yes", "noname": "yes", "minspeed": "40 mph", "maxspeed:type": "sign", "maxspeed": "65 mph", "maxheight": null, "lanes": "4", "highway": "motorway" }, "geometry": { "type": "LineString", "coordinates": [ [ -94.5236701, 38.9091155 ], [ -94.5237023, 38.9096122 ], [ -94.5237398, 38.9103051 ], [ -94.5238793, 38.9108686 ], [ -94.5241583, 38.9116826 ], [ -94.5244372, 38.9122336 ], [ -94.52564, 38.9144454 ] ] } },
{ "type": "Feature", "properties": { "full_id": "w560894831", "osm_id": "560894831", "osm_type": "way", "change:lanes": null, "source:hgv": null, "hgv": null, "destination:ref": null, "destination": null, "maxheight:signed": null, "turn:lanes": null, "destination:lanes": null, "surface": null, "layer": null, "bridge": null, "ref": "I 49;US 71", "oneway": "yes", "noname": "yes", "minspeed": "40 mph", "maxspeed:type": null, "maxspeed": "65 mph", "maxheight": null, "lanes": "3", "highway": "motorway" }, "geometry": { "type": "LineString", "coordinates": [ [ -94.52401, 38.9067321 ], [ -94.5245663, 38.8993283 ] ] } },
{ "type": "Feature", "properties": { "full_id": "w560894833", "osm_id": "560894833", "osm_type": "way", "change:lanes": null, "source:hgv": null, "hgv": null, "destination:ref": null, "destination": null, "maxheight:signed": "no", "turn:lanes": null, "destination:lanes": null, "surface": null, "layer": null, "bridge": null, "ref": "I 49;US 71", "oneway": "yes", "noname": "yes", "minspeed": "40 mph", "maxspeed:type": "sign", "maxspeed": "65 mph", "maxheight": null, "lanes": "5", "highway": "motorway" }, "geometry": { "type": "LineString", "coordinates": [ [ -94.52564, 38.9144454 ], [ -94.5268364, 38.9167545 ], [ -94.5271197, 38.917279 ], [ -94.5272983, 38.9177853 ], [ -94.5274387, 38.9182717 ], [ -94.5275408, 38.9186936 ], [ -94.5276173, 38.9193091 ], [ -94.5276301, 38.9199345 ], [ -94.5275474, 38.9238802 ] ] } },
{ "type": "Feature", "properties": { "full_id": "w560905318", "osm_id": "560905318", "osm_type": "way", "change:lanes": null, "source:hgv": null, "hgv": null, "destination:ref": null, "destination": null, "maxheight:signed": null, "turn:lanes": null, "destination:lanes": null, "surface": null, "layer": "1", "bridge": "yes", "ref": "I 49;US 71", "oneway": "yes", "noname": "yes", "minspeed": "40 mph", "maxspeed:type": "sign", "maxspeed": "65 mph", "maxheight": null, "lanes": "5", "highway": "motorway" }, "geometry": { "type": "LineString", "coordinates": [ [ -94.5275474, 38.9238802 ], [ -94.5275296, 38.9247359 ] ] } },
{ "type": "Feature", "properties": { "full_id": "w560905319", "osm_id": "560905319", "osm_type": "way", "change:lanes": null, "source:hgv": null, "hgv": null, "destination:ref": null, "destination": null, "maxheight:signed": null, "turn:lanes": "|||slight_right|slight_right", "destination:lanes": "||Des Moines|Wichita;Lee's Summit|Wichita;Lee's Summit", "surface": null, "layer": null, "bridge": null, "ref": "I 49;US 71", "oneway": "yes", "noname": "yes", "minspeed": "40 mph", "maxspeed:type": "sign", "maxspeed": "65 mph", "maxheight": null, "lanes": "5", "highway": "motorway" }, "geometry": { "type": "LineString", "coordinates": [ [ -94.5275296, 38.9247359 ], [ -94.5275232, 38.9254496 ] ] } },
{ "type": "Feature", "properties": { "full_id": "w560905323", "osm_id": "560905323", "osm_type": "way", "change:lanes": null, "source:hgv": null, "hgv": null, "destination:ref": null, "destination": null, "maxheight:signed": null, "turn:lanes": null, "destination:lanes": null, "surface": null, "layer": null, "bridge": null, "ref": "I 49;US 71", "oneway": "yes", "noname": "yes", "minspeed": "40 mph", "maxspeed:type": "sign", "maxspeed": "65 mph", "maxheight": null, "lanes": "3", "highway": "motorway" }, "geometry": { "type": "LineString", "coordinates": [ [ -94.5275232, 38.9254496 ], [ -94.5275273, 38.929082 ], [ -94.5275717, 38.9296082 ], [ -94.5277346, 38.9304043 ], [ -94.5278452, 38.9307549 ], [ -94.5279831, 38.9310987 ], [ -94.5282679, 38.9317569 ], [ -94.5285522, 38.9322297 ], [ -94.5289158, 38.9327209 ], [ -94.5294198, 38.9333015 ], [ -94.529994, 38.9338623 ], [ -94.5302409, 38.9341344 ] ] } },
{ "type": "Feature", "properties": { "full_id": "w560905324", "osm_id": "560905324", "osm_type": "way", "change:lanes": null, "source:hgv": null, "hgv": null, "destination:ref": null, "destination": null, "maxheight:signed": null, "turn:lanes": null, "destination:lanes": null, "surface": null, "layer": "1", "bridge": "yes", "ref": "I 49;US 71", "oneway": "yes", "noname": "yes", "minspeed": "40 mph", "maxspeed:type": null, "maxspeed": "65 mph", "maxheight": null, "lanes": "5", "highway": "motorway" }, "geometry": { "type": "LineString", "coordinates": [ [ -94.5278411, 38.9246531 ], [ -94.5278794, 38.9237366 ] ] } },
{ "type": "Feature", "properties": { "full_id": "w560905325", "osm_id": "560905325", "osm_type": "way", "change:lanes": null, "source:hgv": null, "hgv": null, "destination:ref": null, "destination": null, "maxheight:signed": null, "turn:lanes": "none|none|none|slight_right|slight_right", "destination:lanes": null, "surface": null, "layer": null, "bridge": null, "ref": "I 49;US 71", "oneway": "yes", "noname": "yes", "minspeed": "40 mph", "maxspeed:type": null, "maxspeed": "65 mph", "maxheight": null, "lanes": "5", "highway": "motorway" }, "geometry": { "type": "LineString", "coordinates": [ [ -94.5279415, 38.9195424 ], [ -94.5279171, 38.91918 ], [ -94.5278661, 38.9186341 ], [ -94.5277513, 38.9181526 ], [ -94.5276109, 38.9177158 ], [ -94.5274119, 38.9172554 ], [ -94.5246893, 38.9121918 ], [ -94.5244602, 38.9117229 ] ] } },
{ "type": "Feature", "properties": { "full_id": "w560905326", "osm_id": "560905326", "osm_type": "way", "change:lanes": null, "source:hgv": null, "hgv": null, "destination:ref": null, "destination": null, "maxheight:signed": null, "turn:lanes": null, "destination:lanes": null, "surface": null, "layer": null, "bridge": null, "ref": "I 49;US 71", "oneway": "yes", "noname": "yes", "minspeed": "40 mph", "maxspeed:type": null, "maxspeed": "65 mph", "maxheight": null, "lanes": "5", "highway": "motorway" }, "geometry": { "type": "LineString", "coordinates": [ [ -94.5278361, 38.929653 ], [ -94.5277459, 38.9290163 ], [ -94.5277885, 38.9269442 ], [ -94.5277989, 38.926493 ], [ -94.5278411, 38.9246531 ] ] } },
{ "type": "Feature", "properties": { "full_id": "w560905327", "osm_id": "560905327", "osm_type": "way", "change:lanes": null, "source:hgv": null, "hgv": null, "destination:ref": null, "destination": null, "maxheight:signed": null, "turn:lanes": "through|through|through;slight_right|slight_right|slight_right", "destination:lanes": null, "surface": null, "layer": null, "bridge": null, "ref": "I 49;US 71", "oneway": "yes", "noname": "yes", "minspeed": "40 mph", "maxspeed:type": "sign", "maxspeed": "65 mph", "maxheight": null, "lanes": "5", "highway": "motorway" }, "geometry": { "type": "LineString", "coordinates": [ [ -94.5302409, 38.9341344 ], [ -94.5329094, 38.9363782 ], [ -94.5334773, 38.9369319 ], [ -94.5341663, 38.9376316 ], [ -94.5354402, 38.939205 ] ] } },
{ "type": "Feature", "properties": { "full_id": "w560905331", "osm_id": "560905331", "osm_type": "way", "change:lanes": null, "source:hgv": null, "hgv": null, "destination:ref": null, "destination": null, "maxheight:signed": null, "turn:lanes": null, "destination:lanes": null, "surface": null, "layer": null, "bridge": null, "ref": "I 49;US 71", "oneway": "yes", "noname": "yes", "minspeed": "40 mph", "maxspeed:type": null, "maxspeed": "65 mph", "maxheight": null, "lanes": "4", "highway": "motorway" }, "geometry": { "type": "LineString", "coordinates": [ [ -94.529421, 38.9329884 ], [ -94.5292538, 38.9327799 ], [ -94.5290881, 38.9325621 ], [ -94.5287691, 38.9321006 ], [ -94.5284629, 38.9316093 ], [ -94.528216, 38.931082 ], [ -94.528031, 38.9305163 ], [ -94.5278715, 38.9300349 ], [ -94.5278361, 38.929653 ] ] } },
{ "type": "Feature", "properties": { "full_id": "w560905333", "osm_id": "560905333", "osm_type": "way", "change:lanes": null, "source:hgv": null, "hgv": null, "destination:ref": null, "destination": null, "maxheight:signed": null, "turn:lanes": "||||slight_right", "destination:lanes": null, "surface": null, "layer": null, "bridge": null, "ref": "I 49;US 71", "oneway": "yes", "noname": "yes", "minspeed": "40 mph", "maxspeed:type": null, "maxspeed": "65 mph", "maxheight": null, "lanes": "5", "highway": "motorway" }, "geometry": { "type": "LineString", "coordinates": [ [ -94.5341287, 38.9372155 ], [ -94.5337623, 38.9368226 ], [ -94.5301279, 38.9336853 ], [ -94.529421, 38.9329884 ] ] } },
{ "type": "Feature", "properties": { "full_id": "w560905334", "osm_id": "560905334", "osm_type": "way", "change:lanes": null, "source:hgv": "https://www.modot.org/sites/default/files/documents/KC_Com-Zone.pdf", "hgv": "designated", "destination:ref": "I 49 South;US 71 South", "destination": "Joplin", "maxheight:signed": null, "turn:lanes": null, "destination:lanes": null, "surface": null, "layer": null, "bridge": null, "ref": "I 49;US 71", "oneway": "yes", "noname": "yes", "minspeed": "40 mph", "maxspeed:type": null, "maxspeed": "65 mph", "maxheight": null, "lanes": "3", "highway": "motorway" }, "geometry": { "type": "LineString", "coordinates": [ [ -94.5381526, 38.9453324 ], [ -94.5377189, 38.9435489 ], [ -94.537543, 38.9429385 ], [ -94.5371776, 38.941914 ], [ -94.5368799, 38.9412228 ], [ -94.5365517, 38.9406179 ], [ -94.5360923, 38.9397843 ], [ -94.535818, 38.9393724 ], [ -94.5354608, 38.9388564 ], [ -94.5348039, 38.9380033 ], [ -94.5345232, 38.9376847 ], [ -94.5341287, 38.9372155 ] ] } },
{ "type": "Feature", "properties": { "full_id": "w696813519", "osm_id": "696813519", "osm_type": "way", "change:lanes": null, "source:hgv": null, "hgv": null, "destination:ref": null, "destination": null, "maxheight:signed": null, "turn:lanes": "none|none|none|merge_to_left", "destination:lanes": null, "surface": "asphalt", "layer": null, "bridge": null, "ref": "I 49;US 71", "oneway": "yes", "noname": "yes", "minspeed": "40 mph", "maxspeed:type": "sign", "maxspeed": "65 mph", "maxheight": null, "lanes": "4", "highway": "motorway" }, "geometry": { "type": "LineString", "coordinates": [ [ -94.5291271, 38.8472656 ], [ -94.529044, 38.8482921 ] ] } },
{ "type": "Feature", "properties": { "full_id": "w696813521", "osm_id": "696813521", "osm_type": "way", "change:lanes": null, "source:hgv": null, "hgv": null, "destination:ref": null, "destination": null, "maxheight:signed": null, "turn:lanes": null, "destination:lanes": null, "surface": "asphalt", "layer": null, "bridge": null, "ref": "I 49;US 71", "oneway": "yes", "noname": "yes", "minspeed": "40 mph", "maxspeed:type": "sign", "maxspeed": "65 mph", "maxheight": null, "lanes": "3", "highway": "motorway" }, "geometry": { "type": "LineString", "coordinates": [ [ -94.529044, 38.8482921 ], [ -94.528956, 38.8493787 ], [ -94.528654, 38.8529309 ] ] } },
{ "type": "Feature", "properties": { "full_id": "w696817339", "osm_id": "696817339", "osm_type": "way", "change:lanes": null, "source:hgv": null, "hgv": null, "destination:ref": null, "destination": null, "maxheight:signed": null, "turn:lanes": null, "destination:lanes": null, "surface": "asphalt", "layer": null, "bridge": null, "ref": "I 49;US 71", "oneway": "yes", "noname": "yes", "minspeed": "40 mph", "maxspeed:type": "sign", "maxspeed": "65 mph", "maxheight": null, "lanes": "3", "highway": "motorway" }, "geometry": { "type": "LineString", "coordinates": [ [ -94.5290361, 38.838467 ], [ -94.5292914, 38.8390682 ], [ -94.5293609, 38.8392463 ], [ -94.5294191, 38.8393988 ], [ -94.5294644, 38.8395399 ], [ -94.5295062, 38.8396951 ], [ -94.5295508, 38.8398623 ], [ -94.5295844, 38.8400197 ], [ -94.5296139, 38.8401767 ], [ -94.5296341, 38.8403435 ], [ -94.5296492, 38.8405254 ], [ -94.5296556, 38.8407157 ], [ -94.5296543, 38.8408951 ], [ -94.5296413, 38.8411288 ], [ -94.5296222, 38.841419 ], [ -94.5295937, 38.8417791 ], [ -94.5294771, 38.84314 ], [ -94.5292937, 38.8453512 ], [ -94.5292196, 38.8462141 ], [ -94.5291271, 38.8472656 ] ] } },
{ "type": "Feature", "properties": { "full_id": "w696818070", "osm_id": "696818070", "osm_type": "way", "change:lanes": null, "source:hgv": null, "hgv": null, "destination:ref": null, "destination": null, "maxheight:signed": null, "turn:lanes": null, "destination:lanes": null, "surface": "asphalt", "layer": null, "bridge": null, "ref": "I 49;US 71", "oneway": "yes", "noname": "yes", "minspeed": "40 mph", "maxspeed:type": "sign", "maxspeed": "65 mph", "maxheight": null, "lanes": "4", "highway": "motorway" }, "geometry": { "type": "LineString", "coordinates": [ [ -94.5285809, 38.8538229 ], [ -94.5285201, 38.8545318 ] ] } },
{ "type": "Feature", "properties": { "full_id": "w696818071", "osm_id": "696818071", "osm_type": "way", "change:lanes": null, "source:hgv": null, "hgv": null, "destination:ref": null, "destination": null, "maxheight:signed": null, "turn:lanes": null, "destination:lanes": null, "surface": "concrete", "layer": null, "bridge": null, "ref": "I 49;US 71", "oneway": "yes", "noname": "yes", "minspeed": "40 mph", "maxspeed:type": "sign", "maxspeed": "65 mph", "maxheight": null, "lanes": "4", "highway": "motorway" }, "geometry": { "type": "LineString", "coordinates": [ [ -94.5285201, 38.8545318 ], [ -94.5284571, 38.8550444 ], [ -94.5284281, 38.8553011 ], [ -94.5283849, 38.8556165 ], [ -94.5283415, 38.8558777 ], [ -94.528263, 38.8563259 ], [ -94.5281765, 38.8567826 ], [ -94.5280673, 38.8573023 ] ] } },
{ "type": "Feature", "properties": { "full_id": "w696818072", "osm_id": "696818072", "osm_type": "way", "change:lanes": null, "source:hgv": null, "hgv": null, "destination:ref": null, "destination": null, "maxheight:signed": null, "turn:lanes": null, "destination:lanes": null, "surface": "asphalt", "layer": null, "bridge": null, "ref": "I 49;US 71", "oneway": "yes", "noname": "yes", "minspeed": "40 mph", "maxspeed:type": null, "maxspeed": "65 mph", "maxheight": null, "lanes": "3", "highway": "motorway" }, "geometry": { "type": "LineString", "coordinates": [ [ -94.5287033, 38.8545322 ], [ -94.5287953, 38.8535006 ], [ -94.528811, 38.8531851 ] ] } },
{ "type": "Feature", "properties": { "full_id": "w927943313", "osm_id": "927943313", "osm_type": "way", "change:lanes": null, "source:hgv": null, "hgv": null, "destination:ref": null, "destination": null, "maxheight:signed": null, "turn:lanes": null, "destination:lanes": null, "surface": null, "layer": null, "bridge": null, "ref": "I 49;US 71", "oneway": "yes", "noname": "yes", "minspeed": "40 mph", "maxspeed:type": null, "maxspeed": "65 mph", "maxheight": null, "lanes": "5", "highway": "motorway" }, "geometry": { "type": "LineString", "coordinates": [ [ -94.5278794, 38.9237366 ], [ -94.5279415, 38.9195424 ] ] } },
{ "type": "Feature", "properties": { "full_id": "w1187789128", "osm_id": "1187789128", "osm_type": "way", "change:lanes": null, "source:hgv": null, "hgv": null, "destination:ref": null, "destination": null, "maxheight:signed": null, "turn:lanes": null, "destination:lanes": null, "surface": null, "layer": null, "bridge": null, "ref": "I 49;US 71", "oneway": "yes", "noname": "yes", "minspeed": "40 mph", "maxspeed:type": null, "maxspeed": "65 mph", "maxheight": null, "lanes": "3", "highway": "motorway" }, "geometry": { "type": "LineString", "coordinates": [ [ -94.5244602, 38.9117229 ], [ -94.5242977, 38.9113904 ], [ -94.5241154, 38.910806 ], [ -94.5239115, 38.9100171 ], [ -94.5238686, 38.9094244 ], [ -94.5238471, 38.9091113 ], [ -94.5239728, 38.9072748 ] ] } },
{ "type": "Feature", "properties": { "full_id": "w1187789129", "osm_id": "1187789129", "osm_type": "way", "change:lanes": null, "source:hgv": null, "hgv": null, "destination:ref": null, "destination": null, "maxheight:signed": null, "turn:lanes": "|||slight_right", "destination:lanes": null, "surface": null, "layer": null, "bridge": null, "ref": "I 49;US 71", "oneway": "yes", "noname": "yes", "minspeed": "40 mph", "maxspeed:type": null, "maxspeed": "65 mph", "maxheight": null, "lanes": "4", "highway": "motorway" }, "geometry": { "type": "LineString", "coordinates": [ [ -94.5239728, 38.9072748 ], [ -94.5239805, 38.9071632 ], [ -94.52401, 38.9067321 ] ] } },
{ "type": "Feature", "properties": { "full_id": "w1187796205", "osm_id": "1187796205", "osm_type": "way", "change:lanes": null, "source:hgv": null, "hgv": null, "destination:ref": null, "destination": null, "maxheight:signed": null, "turn:lanes": null, "destination:lanes": null, "surface": null, "layer": null, "bridge": null, "ref": "I 49;US 71", "oneway": "yes", "noname": "yes", "minspeed": "40 mph", "maxspeed:type": "sign", "maxspeed": "65 mph", "maxheight": null, "lanes": "3", "highway": "motorway" }, "geometry": { "type": "LineString", "coordinates": [ [ -94.5244972, 38.8972281 ], [ -94.5244131, 38.8983715 ] ] } },
{ "type": "Feature", "properties": { "full_id": "w1187796206", "osm_id": "1187796206", "osm_type": "way", "change:lanes": null, "source:hgv": null, "hgv": null, "destination:ref": null, "destination": null, "maxheight:signed": null, "turn:lanes": "|||slight_right", "destination:lanes": null, "surface": null, "layer": null, "bridge": null, "ref": "I 49;US 71", "oneway": "yes", "noname": "yes", "minspeed": "40 mph", "maxspeed:type": "sign", "maxspeed": "65 mph", "maxheight": null, "lanes": "4", "highway": "motorway" }, "geometry": { "type": "LineString", "coordinates": [ [ -94.5244131, 38.8983715 ], [ -94.5243365, 38.8994121 ] ] } },
{ "type": "Feature", "properties": { "full_id": "w1188073761", "osm_id": "1188073761", "osm_type": "way", "change:lanes": null, "source:hgv": null, "hgv": null, "destination:ref": null, "destination": null, "maxheight:signed": null, "turn:lanes": "|||slight_right", "destination:lanes": null, "surface": null, "layer": null, "bridge": null, "ref": "I 49;US 71", "oneway": "yes", "noname": "yes", "minspeed": "40 mph", "maxspeed:type": null, "maxspeed": "65 mph", "maxheight": null, "lanes": "4", "highway": "motorway" }, "geometry": { "type": "LineString", "coordinates": [ [ -94.525801, 38.8812113 ], [ -94.5259464, 38.8793373 ] ] } },
{ "type": "Feature", "properties": { "full_id": "w1188631810", "osm_id": "1188631810", "osm_type": "way", "change:lanes": null, "source:hgv": null, "hgv": null, "destination:ref": null, "destination": null, "maxheight:signed": null, "turn:lanes": null, "destination:lanes": null, "surface": null, "layer": null, "bridge": null, "ref": "I 49;US 71", "oneway": "yes", "noname": "yes", "minspeed": "40 mph", "maxspeed:type": null, "maxspeed": "65 mph", "maxheight": null, "lanes": "3", "highway": "motorway" }, "geometry": { "type": "LineString", "coordinates": [ [ -94.5273181, 38.8618633 ], [ -94.5276843, 38.8598147 ], [ -94.5279764, 38.8585526 ] ] } },
{ "type": "Feature", "properties": { "full_id": "w1188631811", "osm_id": "1188631811", "osm_type": "way", "change:lanes": null, "source:hgv": null, "hgv": null, "destination:ref": null, "destination": null, "maxheight:signed": null, "turn:lanes": "|||slight_right", "destination:lanes": "||155th Street;Belton|", "surface": null, "layer": null, "bridge": null, "ref": "I 49;US 71", "oneway": "yes", "noname": "yes", "minspeed": "40 mph", "maxspeed:type": null, "maxspeed": "65 mph", "maxheight": null, "lanes": "4", "highway": "motorway" }, "geometry": { "type": "LineString", "coordinates": [ [ -94.5272614, 38.8622264 ], [ -94.5273181, 38.8618633 ] ] } },
{ "type": "Feature", "properties": { "full_id": "w1188806870", "osm_id": "1188806870", "osm_type": "way", "change:lanes": null, "source:hgv": null, "hgv": null, "destination:ref": null, "destination": null, "maxheight:signed": null, "turn:lanes": null, "destination:lanes": null, "surface": null, "layer": null, "bridge": null, "ref": "I 49;US 71", "oneway": "yes", "noname": "yes", "minspeed": "40 mph", "maxspeed:type": "sign", "maxspeed": "65 mph", "maxheight": "15'7\"", "lanes": "3", "highway": "motorway" }, "geometry": { "type": "LineString", "coordinates": [ [ -94.5255134, 38.8830278 ], [ -94.5249744, 38.8904436 ], [ -94.5247449, 38.8938264 ], [ -94.5246835, 38.8947153 ], [ -94.5245324, 38.8967105 ] ] } },
{ "type": "Feature", "properties": { "full_id": "w1188806871", "osm_id": "1188806871", "osm_type": "way", "change:lanes": null, "source:hgv": null, "hgv": null, "destination:ref": null, "destination": null, "maxheight:signed": null, "turn:lanes": "||through;slight_right", "destination:lanes": "||Blue Ridge Boulevard;Hickman Mills Drive;Longview Road;Main Street", "surface": null, "layer": null, "bridge": null, "ref": "I 49;US 71", "oneway": "yes", "noname": "yes", "minspeed": "40 mph", "maxspeed:type": "sign", "maxspeed": "65 mph", "maxheight": null, "lanes": "3", "highway": "motorway" }, "geometry": { "type": "LineString", "coordinates": [ [ -94.5260069, 38.8759491 ], [ -94.5255134, 38.8830278 ] ] } },
{ "type": "Feature", "properties": { "full_id": "w1188821240", "osm_id": "1188821240", "osm_type": "way", "change:lanes": null, "source:hgv": null, "hgv": null, "destination:ref": null, "destination": null, "maxheight:signed": null, "turn:lanes": "|||slight_right", "destination:lanes": null, "surface": null, "layer": null, "bridge": null, "ref": "I 49;US 71", "oneway": "yes", "noname": "yes", "minspeed": "40 mph", "maxspeed:type": "sign", "maxspeed": "65 mph", "maxheight": null, "lanes": "4", "highway": "motorway" }, "geometry": { "type": "LineString", "coordinates": [ [ -94.527111, 38.8617616 ], [ -94.5268996, 38.8632472 ], [ -94.5268452, 38.8640388 ], [ -94.526773, 38.8647483 ], [ -94.5267206, 38.8654152 ] ] } },
{ "type": "Feature", "properties": { "full_id": "w1188821241", "osm_id": "1188821241", "osm_type": "way", "change:lanes": null, "source:hgv": null, "hgv": null, "destination:ref": null, "destination": null, "maxheight:signed": null, "turn:lanes": null, "destination:lanes": null, "surface": null, "layer": null, "bridge": null, "ref": "I 49;US 71", "oneway": "yes", "noname": "yes", "minspeed": "40 mph", "maxspeed:type": "sign", "maxspeed": "65 mph", "maxheight": null, "lanes": "3", "highway": "motorway" }, "geometry": { "type": "LineString", "coordinates": [ [ -94.5277975, 38.8585317 ], [ -94.527111, 38.8617616 ] ] } },
{ "type": "Feature", "properties": { "full_id": "w1190956360", "osm_id": "1190956360", "osm_type": "way", "change:lanes": null, "source:hgv": null, "hgv": null, "destination:ref": null, "destination": null, "maxheight:signed": null, "turn:lanes": null, "destination:lanes": null, "surface": "asphalt", "layer": null, "bridge": null, "ref": "I 49;US 71", "oneway": "yes", "noname": "yes", "minspeed": "40 mph", "maxspeed:type": null, "maxspeed": "65 mph", "maxheight": null, "lanes": "3", "highway": "motorway" }, "geometry": { "type": "LineString", "coordinates": [ [ -94.5293559, 38.8467541 ], [ -94.5294203, 38.8459508 ], [ -94.5294769, 38.8453057 ], [ -94.5296492, 38.8432264 ], [ -94.5297974, 38.8415719 ] ] } },
{ "type": "Feature", "properties": { "full_id": "w1343668358", "osm_id": "1343668358", "osm_type": "way", "change:lanes": "yes|yes|not_right|no", "source:hgv": null, "hgv": null, "destination:ref": null, "destination": null, "maxheight:signed": null, "turn:lanes": "|||slight_right", "destination:lanes": null, "surface": null, "layer": null, "bridge": null, "ref": "I 49;US 71", "oneway": "yes", "noname": "yes", "minspeed": "40 mph", "maxspeed:type": null, "maxspeed": "65 mph", "maxheight": null, "lanes": "4", "highway": "motorway" }, "geometry": { "type": "LineString", "coordinates": [ [ -94.5259464, 38.8793373 ], [ -94.5259704, 38.8790284 ] ] } }
]
}
