{
"type": "FeatureCollection",
"name": "63",
"crs": { "type": "name", "properties": { "name": "urn:ogc:def:crs:OGC:1.3:CRS84" } },
"features": [
{ "type": "Feature", "properties": { "full_id": "r7268339", "osm_id": "7268339", "osm_type": "relation", "name": "63rd Street", "type": "route", "to": "67th & Blue Ridge", "route": "bus", "roundtrip": "no", "ref": "63", "public_transport:version": "2", "operator": "Kansas City Area Transportation Authority", "official_name": "63rd Street", "network:wikipedia": "en:RideKC", "network:wikidata": "Q25004934", "network": "RideKC", "from": "Brookside", "fee": "yes" }, "geometry": { "type": "MultiLineString", "coordinates": [ [ [ -94.583767, 39.0136666 ], [ -94.5836747, 39.0136616 ], [ -94.5834798, 39.0136512 ] ], [ [ -94.5834798, 39.0136512 ], [ -94.5833309, 39.0136432 ], [ -94.5831539, 39.0136337 ], [ -94.5827935, 39.0136151 ], [ -94.5825855, 39.0136043 ], [ -94.5821847, 39.0135835 ], [ -94.5820828, 39.0135782 ], [ -94.5817597, 39.0135615 ] ], [ [ -94.5817597, 39.0135615 ], [ -94.5814986, 39.013548 ] ], [ [ -94.5814986, 39.013548 ], [ -94.5812362, 39.0135367 ] ], [ [ -94.5812362, 39.0135367 ], [ -94.5811222, 39.0135318 ], [ -94.5810385, 39.0135281 ], [ -94.5803765, 39.0134996 ], [ -94.5800587, 39.0134859 ], [ -94.580017, 39.0134841 ], [ -94.5799833, 39.0134826 ], [ -94.5799068, 39.0134793 ], [ -94.5797316, 39.0134717 ], [ -94.5795945, 39.0134658 ] ], [ [ -94.5795945, 39.0134658 ], [ -94.5792412, 39.0134506 ], [ -94.579182, 39.013448 ] ], [ [ -94.579182, 39.013448 ], [ -94.5791288, 39.0134458 ], [ -94.5787875, 39.0134344 ] ], [ [ -94.5787875, 39.0134344 ], [ -94.5784823, 39.0134197 ], [ -94.5784333, 39.0134177 ], [ -94.5781884, 39.0134078 ], [ -94.5777536, 39.0133902 ], [ -94.5773663, 39.0133745 ] ], [ [ -94.5773663, 39.0133745 ], [ -94.576979, 39.0133588 ], [ -94.576885, 39.013355 ] ], [ [ -94.576885, 39.013355 ], [ -94.5767778, 39.0133502 ], [ -94.5764998, 39.0133378 ] ], [ [ -94.5764998, 39.0133378 ], [ -94.5763777, 39.0133324 ], [ -94.5763461, 39.013331 ] ], [ [ -94.5763461, 39.013331 ], [ -94.5758072, 39.0133069 ], [ -94.57572, 39.013303 ], [ -94.5756399, 39.0132989 ], [ -94.5751349, 39.0132762 ] ], [ [ -94.5751349, 39.0132762 ], [ -94.574841, 39.013263 ], [ -94.5745547, 39.0132504 ] ], [ [ -94.5745547, 39.0132504 ], [ -94.574429, 39.0132449 ], [ -94.5740693, 39.0132302 ] ], [ [ -94.5740693, 39.0132302 ], [ -94.5736792, 39.0132143 ], [ -94.573426, 39.013204 ], [ -94.5727017, 39.0131759 ], [ -94.5724811, 39.0131673 ], [ -94.572268, 39.013159 ], [ -94.5712209, 39.0131186 ], [ -94.5710432, 39.0131117 ] ], [ [ -94.5710432, 39.0131117 ], [ -94.5705364, 39.0130922 ], [ -94.570454, 39.013089 ] ], [ [ -94.570454, 39.013089 ], [ -94.570357, 39.0130851 ], [ -94.5700929, 39.0130743 ], [ -94.569986, 39.01307 ] ], [ [ -94.569986, 39.01307 ], [ -94.5694848, 39.0130504 ], [ -94.5691387, 39.0130369 ], [ -94.568858, 39.013026 ], [ -94.56881, 39.0130209 ] ], [ [ -94.56881, 39.0130209 ], [ -94.5687264, 39.0129948 ], [ -94.568661, 39.0129819 ], [ -94.5685526, 39.0129698 ], [ -94.5684094, 39.0129593 ], [ -94.5681605, 39.0129412 ] ], [ [ -94.5681605, 39.0129412 ], [ -94.5673065, 39.0129269 ], [ -94.5671644, 39.012933 ], [ -94.5670243, 39.0129742 ] ], [ [ -94.5670243, 39.0129742 ], [ -94.566978, 39.0129709 ], [ -94.5669054, 39.0129658 ], [ -94.5666768, 39.0129524 ], [ -94.5661765, 39.0129239 ], [ -94.5656807, 39.0128957 ], [ -94.5654778, 39.0128841 ], [ -94.5650863, 39.0128674 ], [ -94.564851, 39.0128573 ], [ -94.564775, 39.012854 ], [ -94.5643576, 39.0128358 ], [ -94.5640355, 39.0128216 ], [ -94.5631624, 39.0127832 ], [ -94.563068, 39.012779 ] ], [ [ -94.563068, 39.012779 ], [ -94.5625692, 39.0127589 ] ], [ [ -94.5625692, 39.0127589 ], [ -94.560785, 39.012687 ] ], [ [ -94.560785, 39.012687 ], [ -94.5604457, 39.0126745 ] ], [ [ -94.5604457, 39.0126745 ], [ -94.5594662, 39.0126383 ], [ -94.5592319, 39.0126279 ] ], [ [ -94.5592319, 39.0126279 ], [ -94.5588758, 39.0126121 ] ], [ [ -94.5588758, 39.0126121 ], [ -94.558377, 39.01259 ], [ -94.5574756, 39.0125528 ] ], [ [ -94.5574756, 39.0125528 ], [ -94.5573817, 39.0125182 ], [ -94.5573224, 39.0125012 ], [ -94.5572398, 39.0124876 ], [ -94.5567185, 39.0124648 ], [ -94.5563479, 39.0124451 ], [ -94.5561617, 39.0124352 ] ], [ [ -94.5561617, 39.0124352 ], [ -94.5560224, 39.0124313 ], [ -94.5553544, 39.0124127 ], [ -94.5552431, 39.0124091 ] ], [ [ -94.5552431, 39.0124091 ], [ -94.5550328, 39.0124009 ] ], [ [ -94.5550328, 39.0124009 ], [ -94.5542998, 39.0123725 ] ], [ [ -94.5542998, 39.0123725 ], [ -94.5541336, 39.0123577 ] ], [ [ -94.5541336, 39.0123577 ], [ -94.5539945, 39.0123401 ], [ -94.5537254, 39.0123329 ], [ -94.5531625, 39.0123289 ], [ -94.5527903, 39.0123257 ], [ -94.552666, 39.012344 ] ], [ [ -94.5443687, 39.0119869 ], [ -94.5444296, 39.0119904 ], [ -94.5447328, 39.0120023 ], [ -94.5458054, 39.0120443 ], [ -94.5468693, 39.0120912 ], [ -94.5472413, 39.0121064 ], [ -94.5475717, 39.0121199 ], [ -94.548038, 39.012139 ], [ -94.549193, 39.012191 ], [ -94.550335, 39.012243 ], [ -94.551508, 39.012296 ], [ -94.552666, 39.012344 ] ], [ [ -94.5443687, 39.0119869 ], [ -94.5442212, 39.011953 ], [ -94.5437953, 39.0119189 ], [ -94.5435319, 39.0118978 ], [ -94.5433817, 39.0118895 ], [ -94.5424611, 39.0118518 ], [ -94.5423622, 39.0118477 ], [ -94.5421278, 39.0118301 ], [ -94.5419853, 39.0118134 ], [ -94.5418086, 39.0117926 ], [ -94.5416883, 39.0117782 ], [ -94.5410892, 39.0116752 ], [ -94.5408654, 39.0116477 ], [ -94.540425, 39.0116101 ], [ -94.539676, 39.011568 ], [ -94.5375703, 39.0114844 ], [ -94.5373844, 39.0114818 ], [ -94.536969, 39.011476 ], [ -94.536687, 39.011498 ], [ -94.536348, 39.011546 ], [ -94.536185, 39.011586 ], [ -94.536049, 39.011619 ], [ -94.5350594, 39.0119458 ], [ -94.534968, 39.011976 ], [ -94.534552, 39.01206 ], [ -94.534338, 39.01208 ], [ -94.533547, 39.012098 ], [ -94.5331138, 39.0121301 ], [ -94.5327772, 39.0121636 ], [ -94.5322388, 39.0122147 ] ], [ [ -94.5322388, 39.0122147 ], [ -94.5316657, 39.012325 ], [ -94.5309653, 39.0124999 ], [ -94.5308608, 39.01259 ] ], [ [ -94.5308608, 39.01259 ], [ -94.5308128, 39.0126021 ], [ -94.5294202, 39.0131175 ], [ -94.5286101, 39.0133926 ], [ -94.5282082, 39.0134898 ], [ -94.5280213, 39.0135343 ], [ -94.52743, 39.0136448 ], [ -94.5266977, 39.0137676 ] ], [ [ -94.5266977, 39.0137676 ], [ -94.523872, 39.0142074 ] ], [ [ -94.523872, 39.0142074 ], [ -94.5229989, 39.0143721 ] ], [ [ -94.5229989, 39.0143721 ], [ -94.5224455, 39.0144792 ], [ -94.5220557, 39.0145532 ], [ -94.5217162, 39.0146046 ], [ -94.5211336, 39.0146639 ] ], [ [ -94.5211336, 39.0146639 ], [ -94.5207276, 39.014708 ], [ -94.519578, 39.014885 ], [ -94.518611, 39.015035 ], [ -94.517897, 39.015126 ], [ -94.516852, 39.015258 ], [ -94.5165206, 39.0152689 ], [ -94.516333, 39.015275 ], [ -94.515781, 39.01525 ], [ -94.515755, 39.015249 ], [ -94.515321, 39.015194 ], [ -94.514771, 39.015071 ], [ -94.514272, 39.014912 ], [ -94.513849, 39.014739 ], [ -94.513317, 39.014514 ], [ -94.5130086, 39.014386 ], [ -94.5110419, 39.013501 ] ], [ [ -94.5110419, 39.013501 ], [ -94.509296, 39.012864 ], [ -94.508472, 39.012585 ], [ -94.507926, 39.012436 ], [ -94.507221, 39.012307 ], [ -94.506797, 39.012265 ], [ -94.5063536, 39.012259 ] ], [ [ -94.5063536, 39.012259 ], [ -94.5063536, 39.0121381 ], [ -94.5063322, 39.0120589 ], [ -94.50627, 39.011984 ], [ -94.50613, 39.011879 ], [ -94.5059432, 39.0118005 ], [ -94.505732, 39.011734 ], [ -94.505565, 39.011648 ], [ -94.504973, 39.011188 ], [ -94.504771, 39.010987 ], [ -94.504642, 39.010814 ], [ -94.504564, 39.010659 ], [ -94.504515, 39.010496 ], [ -94.5043255, 39.0093452 ], [ -94.504275, 39.0091727 ], [ -94.5041835, 39.008979 ], [ -94.5041488, 39.0088764 ], [ -94.5040667, 39.0085676 ], [ -94.5040568, 39.0084715 ], [ -94.504078, 39.00828 ], [ -94.504112, 39.008112 ], [ -94.504183, 39.007925 ], [ -94.504671, 39.006945 ] ], [ [ -94.5110419, 39.013501 ], [ -94.5114066, 39.0129758 ], [ -94.5115273, 39.0128528 ], [ -94.5120772, 39.0124965 ], [ -94.5122542, 39.0123506 ], [ -94.5124527, 39.0120922 ], [ -94.5125439, 39.0118754 ], [ -94.5125975, 39.0115669 ], [ -94.5125868, 39.0112418 ], [ -94.5124983, 39.0106228 ], [ -94.5124313, 39.010329 ], [ -94.5122971, 39.0100205 ], [ -94.512104, 39.0097912 ], [ -94.5118089, 39.0095869 ], [ -94.5115166, 39.0094431 ], [ -94.5111599, 39.0093327 ], [ -94.5107924, 39.0092848 ], [ -94.5101889, 39.0092702 ], [ -94.5098483, 39.0092264 ], [ -94.5096578, 39.009166 ], [ -94.5094003, 39.0090785 ], [ -94.5091321, 39.0089326 ], [ -94.508844, 39.0086964 ], [ -94.508742, 39.008625 ], [ -94.5083553, 39.0083333 ], [ -94.507704, 39.007842 ], [ -94.5076083, 39.0077848 ], [ -94.507393, 39.007656 ], [ -94.5072339, 39.0075898 ], [ -94.507191, 39.007572 ], [ -94.506946, 39.0075 ], [ -94.506334, 39.007399 ], [ -94.5060601, 39.0073445 ], [ -94.505801, 39.007293 ], [ -94.505004, 39.007063 ], [ -94.504671, 39.006945 ] ], [ [ -94.5110419, 39.013501 ], [ -94.509296, 39.012864 ], [ -94.508472, 39.012585 ], [ -94.507926, 39.012436 ], [ -94.507221, 39.012307 ], [ -94.506797, 39.012265 ], [ -94.5063536, 39.012259 ] ], [ [ -94.5063536, 39.012259 ], [ -94.506107, 39.012295 ], [ -94.505858, 39.012339 ], [ -94.505616, 39.012403 ], [ -94.505422, 39.012471 ], [ -94.505141, 39.012601 ], [ -94.504244, 39.013089 ], [ -94.503855, 39.01327 ], [ -94.503642, 39.013352 ], [ -94.503419, 39.013416 ], [ -94.503189, 39.013461 ], [ -94.5028354, 39.0134906 ], [ -94.502663, 39.013505 ], [ -94.502383, 39.013491 ], [ -94.502142, 39.013455 ], [ -94.500331, 39.01305 ], [ -94.500124, 39.012982 ], [ -94.499907, 39.012904 ], [ -94.499575, 39.012717 ], [ -94.499325, 39.012532 ], [ -94.4992436, 39.0124461 ], [ -94.4990276, 39.01225 ], [ -94.498601, 39.011761 ], [ -94.49844, 39.011609 ], [ -94.49839, 39.011569 ], [ -94.498354, 39.011536 ], [ -94.498124, 39.011364 ], [ -94.497938, 39.011246 ], [ -94.4977593, 39.0111319 ], [ -94.4973663, 39.0109769 ], [ -94.496981, 39.010842 ], [ -94.4962237, 39.0105692 ], [ -94.495801, 39.010417 ], [ -94.494966, 39.010128 ], [ -94.494642, 39.010053 ], [ -94.494364, 39.010011 ], [ -94.494083, 39.009988 ], [ -94.491337, 39.009877 ], [ -94.491237, 39.009873 ] ], [ [ -94.491237, 39.009873 ], [ -94.4903547, 39.0098204 ], [ -94.49002, 39.0098005 ], [ -94.4898663, 39.0097961 ] ], [ [ -94.4898663, 39.0097961 ], [ -94.4893083, 39.00978 ], [ -94.4885627, 39.0097585 ] ], [ [ -94.4885627, 39.0097585 ], [ -94.4881299, 39.0097633 ], [ -94.487659, 39.0097686 ], [ -94.487462, 39.0098199 ] ], [ [ -94.487462, 39.0098199 ], [ -94.4871546, 39.009807 ], [ -94.4867624, 39.0097905 ], [ -94.4865067, 39.0097797 ], [ -94.486472, 39.0097786 ], [ -94.4863914, 39.0097761 ], [ -94.485594, 39.0097515 ], [ -94.4842455, 39.00971 ], [ -94.484125, 39.0097063 ], [ -94.4835106, 39.0096874 ], [ -94.4829768, 39.0096709 ], [ -94.4828643, 39.0096683 ] ], [ [ -94.4818523, 39.0096712 ], [ -94.4820013, 39.0096791 ], [ -94.4821748, 39.0096838 ], [ -94.4826638, 39.0096971 ], [ -94.4827862, 39.0096882 ], [ -94.4828643, 39.0096683 ] ], [ [ -94.4818852, 39.0091262 ], [ -94.4818668, 39.0094266 ], [ -94.4818594, 39.0095475 ], [ -94.4818523, 39.0096712 ] ], [ [ -94.481891, 39.0089542 ], [ -94.4818852, 39.0091262 ] ], [ [ -94.4820002, 39.0081865 ], [ -94.4819396, 39.0084198 ], [ -94.4819107, 39.0087052 ], [ -94.4818946, 39.0088765 ], [ -94.481891, 39.0089542 ] ], [ [ -94.4820002, 39.0081865 ], [ -94.482005, 39.007748 ], [ -94.4820405, 39.0070697 ], [ -94.482054, 39.006815 ], [ -94.4820643, 39.006619 ], [ -94.4820807, 39.0063016 ], [ -94.4821307, 39.0053128 ], [ -94.4821433, 39.0051061 ], [ -94.48218, 39.004405 ] ], [ [ -94.48218, 39.004405 ], [ -94.4821875, 39.0042376 ], [ -94.482189, 39.004221 ] ], [ [ -94.482189, 39.004221 ], [ -94.4821987, 39.0040102 ], [ -94.4822139, 39.0036818 ], [ -94.4822179, 39.003596 ], [ -94.482229, 39.0033552 ], [ -94.4822462, 39.0029823 ], [ -94.4822479, 39.0029458 ], [ -94.4822673, 39.0025252 ], [ -94.482272, 39.002424 ] ], [ [ -94.4826564, 39.0024315 ], [ -94.4824102, 39.0024267 ], [ -94.482272, 39.002424 ] ], [ [ -94.4837958, 39.0024537 ], [ -94.4836097, 39.0024501 ], [ -94.4829363, 39.002437 ], [ -94.4826564, 39.0024315 ] ], [ [ -94.4845429, 39.0024801 ], [ -94.4837958, 39.0024537 ] ], [ [ -94.4961974, 39.002873 ], [ -94.493878, 39.002795 ], [ -94.491553, 39.002716 ], [ -94.4898558, 39.0026617 ], [ -94.4895277, 39.0026512 ], [ -94.4891108, 39.0026379 ], [ -94.487396, 39.002583 ], [ -94.4866494, 39.0025561 ], [ -94.4858996, 39.002529 ], [ -94.4845429, 39.0024801 ] ], [ [ -94.49575, 39.010515 ], [ -94.495801, 39.010417 ], [ -94.495871, 39.010135 ], [ -94.495896, 39.009698 ], [ -94.4959026, 39.0095326 ], [ -94.4959238, 39.009005 ], [ -94.4959256, 39.0089601 ], [ -94.495933, 39.0087764 ], [ -94.4959446, 39.0084889 ], [ -94.4959664, 39.0079469 ], [ -94.496023, 39.006503 ], [ -94.4960484, 39.0059356 ], [ -94.496104, 39.004697 ], [ -94.496106, 39.0046691 ], [ -94.4961974, 39.002873 ] ], [ [ -94.49575, 39.010515 ], [ -94.496978, 39.010975 ], [ -94.49731, 39.011083 ], [ -94.497649, 39.011231 ], [ -94.4977425, 39.0112856 ], [ -94.4978178, 39.0113295 ], [ -94.497882, 39.011367 ], [ -94.498043, 39.01148 ], [ -94.498316, 39.011697 ], [ -94.498525, 39.011897 ], [ -94.4986978, 39.0121011 ], [ -94.4988259, 39.0122455 ], [ -94.499308, 39.012682 ], [ -94.499498, 39.012809 ], [ -94.499703, 39.01292 ], [ -94.499923, 39.013014 ], [ -94.500154, 39.013089 ], [ -94.502033, 39.013542 ], [ -94.502494, 39.013595 ], [ -94.5028326, 39.013595 ], [ -94.502908, 39.013595 ], [ -94.503226, 39.013559 ], [ -94.503671, 39.013449 ], [ -94.504044, 39.013307 ], [ -94.50535, 39.012617 ], [ -94.505572, 39.012529 ], [ -94.505779, 39.012464 ], [ -94.506122, 39.012391 ], [ -94.5063367, 39.0123709 ] ], [ [ -94.5063367, 39.0123709 ], [ -94.506389, 39.012366 ], [ -94.506839, 39.012368 ], [ -94.507331, 39.012417 ], [ -94.507539, 39.012453 ], [ -94.507955, 39.012551 ], [ -94.508721, 39.012768 ], [ -94.509966, 39.013265 ], [ -94.5108799, 39.013709 ] ], [ [ -94.5108799, 39.013709 ], [ -94.511969, 39.014238 ], [ -94.5128422, 39.0146136 ], [ -94.513101, 39.01472 ], [ -94.513741, 39.014979 ], [ -94.5146225, 39.0153269 ], [ -94.514643, 39.015335 ], [ -94.514921, 39.015426 ], [ -94.515296, 39.015504 ], [ -94.515741, 39.015539 ], [ -94.515769, 39.015539 ], [ -94.516188, 39.015543 ], [ -94.5165425, 39.0155244 ], [ -94.516665, 39.015518 ], [ -94.517898, 39.015336 ], [ -94.518625, 39.015229 ], [ -94.519676, 39.015068 ], [ -94.5211691, 39.0148281 ], [ -94.5217837, 39.0147024 ], [ -94.5225133, 39.0145398 ], [ -94.5229989, 39.0143721 ] ], [ [ -94.5308608, 39.01259 ], [ -94.5310443, 39.0125989 ], [ -94.5322722, 39.0123159 ], [ -94.5329201, 39.0122501 ], [ -94.533303, 39.0122228 ], [ -94.534327, 39.012199 ], [ -94.534572, 39.012175 ], [ -94.5349607, 39.0121004 ], [ -94.535351, 39.012 ], [ -94.5357, 39.011865 ], [ -94.536001, 39.011777 ], [ -94.5362646, 39.0117379 ], [ -94.5365449, 39.0117064 ], [ -94.5370144, 39.0116949 ], [ -94.5372335, 39.0117057 ], [ -94.5373742, 39.0117128 ], [ -94.537559, 39.0117218 ], [ -94.5398756, 39.011829 ], [ -94.5412356, 39.0118772 ], [ -94.5414968, 39.0118864 ], [ -94.5417523, 39.0118955 ], [ -94.5419866, 39.0119113 ], [ -94.5421131, 39.0119198 ], [ -94.5423577, 39.0119343 ], [ -94.5424563, 39.0119391 ], [ -94.5433885, 39.0119842 ], [ -94.5434112, 39.0119853 ], [ -94.5440174, 39.0119999 ], [ -94.5443687, 39.0119869 ] ], [ [ -94.552666, 39.012344 ], [ -94.5527836, 39.0123862 ], [ -94.5531765, 39.0124154 ], [ -94.5536582, 39.0124429 ], [ -94.5540189, 39.0124635 ], [ -94.5541131, 39.0124689 ] ], [ [ -94.5541131, 39.0124689 ], [ -94.5542937, 39.0124779 ] ], [ [ -94.5542937, 39.0124779 ], [ -94.5550219, 39.0125092 ] ], [ [ -94.5550219, 39.0125092 ], [ -94.5552253, 39.0125214 ] ], [ [ -94.5552253, 39.0125214 ], [ -94.555345, 39.0125279 ], [ -94.5556234, 39.012543 ], [ -94.5556719, 39.0125448 ], [ -94.5560185, 39.0125552 ], [ -94.5561555, 39.0125593 ] ], [ [ -94.5670243, 39.0129742 ], [ -94.5671836, 39.0130163 ], [ -94.5676247, 39.0130321 ], [ -94.5681647, 39.0130514 ] ], [ [ -94.5681647, 39.0130514 ], [ -94.5684624, 39.0130627 ], [ -94.5685628, 39.0130645 ], [ -94.56881, 39.0130209 ] ], [ [ -94.5914858, 39.0140372 ], [ -94.5915346, 39.0139307 ], [ -94.5915735, 39.0138495 ], [ -94.5916981, 39.0136063 ], [ -94.5918995, 39.0131635 ], [ -94.5920118, 39.0129231 ], [ -94.5920819, 39.0127731 ], [ -94.5921096, 39.0127137 ], [ -94.5921596, 39.0125974 ] ], [ [ -94.5921596, 39.0125974 ], [ -94.5922387, 39.0125009 ], [ -94.5923057, 39.0124144 ], [ -94.5923331, 39.0123899 ], [ -94.592358, 39.0123675 ], [ -94.5924278, 39.0123206 ], [ -94.5925771, 39.0122649 ] ], [ [ -94.5925771, 39.0122649 ], [ -94.5930733, 39.0122866 ], [ -94.5931703, 39.0122906 ] ], [ [ -94.5931703, 39.0122906 ], [ -94.5931686, 39.0124548 ], [ -94.5931621, 39.0130772 ], [ -94.5931565, 39.0137232 ], [ -94.5931471, 39.0139552 ], [ -94.5931419, 39.0141205 ] ], [ [ -94.592052, 39.014069 ], [ -94.5921822, 39.0140768 ], [ -94.5923775, 39.0140891 ], [ -94.5924483, 39.0140935 ], [ -94.5929412, 39.0141198 ], [ -94.5930551, 39.0141239 ], [ -94.5931419, 39.0141205 ] ], [ [ -94.5914858, 39.0140372 ], [ -94.5916213, 39.014043 ], [ -94.592052, 39.014069 ] ], [ [ -94.5912391, 39.0140199 ], [ -94.5913472, 39.0140262 ], [ -94.5914858, 39.0140372 ] ], [ [ -94.5883824, 39.0138821 ], [ -94.5885326, 39.0138888 ], [ -94.5887149, 39.013897 ], [ -94.5893005, 39.0139232 ], [ -94.5895114, 39.0139344 ], [ -94.5895954, 39.0139371 ], [ -94.5900013, 39.0139551 ], [ -94.5904835, 39.0139755 ], [ -94.590588, 39.013981 ], [ -94.5906934, 39.0139871 ], [ -94.590797, 39.013993 ], [ -94.5908377, 39.0139955 ], [ -94.5912391, 39.0140199 ] ], [ [ -94.5883824, 39.0138821 ], [ -94.5880685, 39.0138648 ] ], [ [ -94.5880685, 39.0138648 ], [ -94.5872223, 39.0138183 ], [ -94.5861892, 39.0137706 ], [ -94.586066, 39.013765 ], [ -94.5859723, 39.0137613 ], [ -94.5849214, 39.01372 ], [ -94.5843107, 39.0136914 ], [ -94.5840209, 39.0136777 ], [ -94.5838689, 39.013671 ], [ -94.583767, 39.0136666 ] ] ] } },
{ "type": "Feature", "properties": { "full_id": "r9955767", "osm_id": "9955767", "osm_type": "relation", "name": "63rd Street", "type": "route", "to": null, "route": "bicycle", "roundtrip": null, "ref": null, "public_transport:version": null, "operator": null, "official_name": null, "network:wikipedia": null, "network:wikidata": null, "network": "lcn", "from": null, "fee": null }, "geometry": { "type": "MultiLineString", "coordinates": [ [ [ -94.5982299, 39.0142788 ], [ -94.598921, 39.0143232 ], [ -94.599267, 39.014351 ], [ -94.599922, 39.0144036 ], [ -94.600014, 39.014411 ], [ -94.6018196, 39.0144924 ], [ -94.6018398, 39.0144933 ], [ -94.601945, 39.014498 ], [ -94.602518, 39.014524 ], [ -94.6026147, 39.0145287 ], [ -94.6032739, 39.0145609 ], [ -94.6034596, 39.01457 ], [ -94.6059528, 39.0146919 ], [ -94.6062127, 39.0147046 ], [ -94.606303, 39.014709 ], [ -94.6064475, 39.0147302 ], [ -94.606574, 39.014762 ], [ -94.606718, 39.014808 ], [ -94.6067546, 39.0148234 ], [ -94.6068659, 39.0148702 ], [ -94.6069698, 39.0149308 ], [ -94.6069935, 39.0149447 ], [ -94.6071096, 39.0150174 ], [ -94.6072362, 39.0150803 ], [ -94.6074563, 39.0151526 ], [ -94.6075566, 39.0151756 ], [ -94.6076657, 39.0151812 ], [ -94.6076748, 39.0151794 ], [ -94.607743, 39.015166 ] ] ] } }
]
}
