{
"type": "FeatureCollection",
"name": "71",
"crs": { "type": "name", "properties": { "name": "urn:ogc:def:crs:OGC:1.3:CRS84" } },
"features": [
{ "type": "Feature", "properties": { "full_id": "w37535911", "osm_id": "37535911", "osm_type": "way", "ref": "US 71", "maxheight": null, "destination": null, "junction:ref": null, "destination:ref": null, "source:hgv": null, "name": null, "hgv": null, "destination:lanes": null, "NHS": null, "turn:lanes": null, "layer": null, "bridge": null, "surface": "concrete", "oneway": "yes", "maxspeed": "45 mph", "lanes": "1", "highway": "motorway" }, "geometry": { "type": "LineString", "coordinates": [ [ -94.5715779, 39.0980823 ], [ -94.5716407, 39.0983013 ], [ -94.5717449, 39.0986176 ], [ -94.5719118, 39.0990211 ] ] } },
{ "type": "Feature", "properties": { "full_id": "w37535933", "osm_id": "37535933", "osm_type": "way", "ref": "US 71", "maxheight": null, "destination": null, "junction:ref": null, "destination:ref": null, "source:hgv": null, "name": null, "hgv": null, "destination:lanes": null, "NHS": null, "turn:lanes": "|slight_right", "layer": "1", "bridge": "yes", "surface": "concrete", "oneway": "yes", "maxspeed": "45 mph", "lanes": "2", "highway": "motorway" }, "geometry": { "type": "LineString", "coordinates": [ [ -94.571638, 39.0951083 ], [ -94.5714793, 39.0959273 ], [ -94.5713929, 39.0964363 ] ] } },
{ "type": "Feature", "properties": { "full_id": "w37538228", "osm_id": "37538228", "osm_type": "way", "ref": "US 71", "maxheight": null, "destination": null, "junction:ref": null, "destination:ref": null, "source:hgv": null, "name": null, "hgv": null, "destination:lanes": null, "NHS": null, "turn:lanes": null, "layer": null, "bridge": null, "surface": "asphalt", "oneway": "yes", "maxspeed": "45 mph", "lanes": "2", "highway": "motorway" }, "geometry": { "type": "LineString", "coordinates": [ [ -94.5722777, 39.0998377 ], [ -94.5723813, 39.100145 ], [ -94.5724082, 39.1002972 ], [ -94.5724979, 39.1004678 ] ] } },
{ "type": "Feature", "properties": { "full_id": "w38428885", "osm_id": "38428885", "osm_type": "way", "ref": "US 71", "maxheight": null, "destination": null, "junction:ref": null, "destination:ref": null, "source:hgv": "https://www.modot.org/sites/default/files/documents/KC_Com-Zone.pdf", "name": "Bruce R. Watkins Drive", "hgv": "designated", "destination:lanes": "Kansas||11th Street;Downtown|Truman Road", "NHS": "yes", "turn:lanes": "|||slight_right", "layer": null, "bridge": null, "surface": "concrete", "oneway": "yes", "maxspeed": "45 mph", "lanes": "4", "highway": "motorway" }, "geometry": { "type": "LineString", "coordinates": [ [ -94.5716477, 39.0917131 ], [ -94.5717943, 39.092464 ], [ -94.5718225, 39.0927145 ] ] } },
{ "type": "Feature", "properties": { "full_id": "w118575748", "osm_id": "118575748", "osm_type": "way", "ref": "US 71", "maxheight": null, "destination": null, "junction:ref": null, "destination:ref": "I 29 North;I 35 North;US 71 North;I 70 West;US 24 West;US 40 West", "source:hgv": null, "name": null, "hgv": null, "destination:lanes": null, "NHS": null, "turn:lanes": null, "layer": "1", "bridge": "yes", "surface": "concrete", "oneway": "yes", "maxspeed": "45 mph", "lanes": "1", "highway": "motorway" }, "geometry": { "type": "LineString", "coordinates": [ [ -94.5713929, 39.0964363 ], [ -94.5714117, 39.0965574 ], [ -94.5714149, 39.0969511 ], [ -94.5714327, 39.097285 ], [ -94.5714762, 39.0976017 ], [ -94.5715779, 39.0980823 ] ] } },
{ "type": "Feature", "properties": { "full_id": "w118575863", "osm_id": "118575863", "osm_type": "way", "ref": "US 71", "maxheight": null, "destination": null, "junction:ref": null, "destination:ref": null, "source:hgv": "https://www.modot.org/sites/default/files/documents/KC_Com-Zone.pdf", "name": null, "hgv": "designated", "destination:lanes": null, "NHS": null, "turn:lanes": null, "layer": null, "bridge": null, "surface": null, "oneway": "yes", "maxspeed": "45 mph", "lanes": "2", "highway": "motorway" }, "geometry": { "type": "LineString", "coordinates": [ [ -94.5717703, 39.0945929 ], [ -94.571638, 39.0951083 ] ] } },
{ "type": "Feature", "properties": { "full_id": "w505951925", "osm_id": "505951925", "osm_type": "way", "ref": "US 71", "maxheight": null, "destination": null, "junction:ref": "2M", "destination:ref": null, "source:hgv": null, "name": "Bruce R. Watkins Drive", "hgv": null, "destination:lanes": "Joplin|Joplin;Wichita|Wichita", "NHS": null, "turn:lanes": "|through;slight_right|slight_right", "layer": null, "bridge": null, "surface": null, "oneway": "yes", "maxspeed": "45 mph", "lanes": "3", "highway": "motorway" }, "geometry": { "type": "LineString", "coordinates": [ [ -94.5727396, 39.0991538 ], [ -94.5727801, 39.0987646 ] ] } },
{ "type": "Feature", "properties": { "full_id": "w505954037", "osm_id": "505954037", "osm_type": "way", "ref": "US 71", "maxheight": null, "destination": null, "junction:ref": null, "destination:ref": null, "source:hgv": "https://www.modot.org/sites/default/files/documents/KC_Com-Zone.pdf", "name": "Bruce R. Watkins Drive", "hgv": "designated", "destination:lanes": "Kansas||11th Street;Downtown", "NHS": "yes", "turn:lanes": "slight_left||", "layer": null, "bridge": null, "surface": "concrete", "oneway": "yes", "maxspeed": "45 mph", "lanes": "3", "highway": "motorway" }, "geometry": { "type": "LineString", "coordinates": [ [ -94.5718225, 39.0927145 ], [ -94.5718553, 39.0930076 ], [ -94.5718628, 39.0933233 ], [ -94.5718698, 39.0936298 ], [ -94.5717703, 39.0945929 ] ] } },
{ "type": "Feature", "properties": { "full_id": "w528246256", "osm_id": "528246256", "osm_type": "way", "ref": "US 71", "maxheight": null, "destination": null, "junction:ref": null, "destination:ref": null, "source:hgv": null, "name": null, "hgv": null, "destination:lanes": null, "NHS": null, "turn:lanes": null, "layer": "1", "bridge": "yes", "surface": "concrete", "oneway": "yes", "maxspeed": "45 mph", "lanes": "2", "highway": "motorway" }, "geometry": { "type": "LineString", "coordinates": [ [ -94.5720461, 39.0993458 ], [ -94.5722777, 39.0998377 ] ] } },
{ "type": "Feature", "properties": { "full_id": "w560924609", "osm_id": "560924609", "osm_type": "way", "ref": "US 71", "maxheight": null, "destination": null, "junction:ref": null, "destination:ref": null, "source:hgv": "https://www.modot.org/sites/default/files/documents/KC_Com-Zone.pdf", "name": "Bruce R. Watkins Drive", "hgv": "designated", "destination:lanes": null, "NHS": null, "turn:lanes": null, "layer": null, "bridge": null, "surface": null, "oneway": "yes", "maxspeed": "45 mph", "lanes": "3", "highway": "motorway" }, "geometry": { "type": "LineString", "coordinates": [ [ -94.5721818, 39.0933607 ], [ -94.5720785, 39.092291 ] ] } },
{ "type": "Feature", "properties": { "full_id": "w560924610", "osm_id": "560924610", "osm_type": "way", "ref": "US 71", "maxheight": null, "destination": null, "junction:ref": null, "destination:ref": null, "source:hgv": null, "name": "Bruce R. Watkins Drive", "hgv": null, "destination:lanes": null, "NHS": null, "turn:lanes": null, "layer": "1", "bridge": "yes", "surface": null, "oneway": "yes", "maxspeed": "45 mph", "lanes": "2", "highway": "motorway" }, "geometry": { "type": "LineString", "coordinates": [ [ -94.572798, 39.0983197 ], [ -94.5729153, 39.097567 ], [ -94.5729604, 39.0971399 ], [ -94.5729604, 39.0968598 ], [ -94.5728928, 39.0964677 ], [ -94.5728206, 39.0961667 ], [ -94.5727484, 39.0959776 ], [ -94.5726221, 39.0957045 ], [ -94.5724071, 39.0951184 ] ] } },
{ "type": "Feature", "properties": { "full_id": "w560924611", "osm_id": "560924611", "osm_type": "way", "ref": "US 71", "maxheight": null, "destination": null, "junction:ref": null, "destination:ref": null, "source:hgv": "https://www.modot.org/sites/default/files/documents/KC_Com-Zone.pdf", "name": "Bruce R. Watkins Drive", "hgv": "designated", "destination:lanes": null, "NHS": null, "turn:lanes": null, "layer": null, "bridge": null, "surface": null, "oneway": "yes", "maxspeed": "45 mph", "lanes": "2", "highway": "motorway" }, "geometry": { "type": "LineString", "coordinates": [ [ -94.5724071, 39.0951184 ], [ -94.5722918, 39.0946471 ], [ -94.5722663, 39.0943352 ], [ -94.5722333, 39.093895 ], [ -94.5721818, 39.0933607 ] ] } },
{ "type": "Feature", "properties": { "full_id": "w560927908", "osm_id": "560927908", "osm_type": "way", "ref": "US 71", "maxheight": null, "destination": null, "junction:ref": null, "destination:ref": null, "source:hgv": null, "name": null, "hgv": null, "destination:lanes": null, "NHS": null, "turn:lanes": null, "layer": null, "bridge": null, "surface": "asphalt", "oneway": "yes", "maxspeed": "45 mph", "lanes": "2", "highway": "motorway" }, "geometry": { "type": "LineString", "coordinates": [ [ -94.5719118, 39.0990211 ], [ -94.5719861, 39.0992008 ], [ -94.5720461, 39.0993458 ] ] } },
{ "type": "Feature", "properties": { "full_id": "w560927909", "osm_id": "560927909", "osm_type": "way", "ref": "US 71", "maxheight": null, "destination": "Joplin", "junction:ref": "2M", "destination:ref": "US 71 South", "source:hgv": null, "name": "Bruce R. Watkins Drive", "hgv": null, "destination:lanes": null, "NHS": null, "turn:lanes": null, "layer": null, "bridge": null, "surface": null, "oneway": "yes", "maxspeed": "45 mph", "lanes": "2", "highway": "motorway" }, "geometry": { "type": "LineString", "coordinates": [ [ -94.5727801, 39.0987646 ], [ -94.572798, 39.0983197 ] ] } },
{ "type": "Feature", "properties": { "full_id": "w562149943", "osm_id": "562149943", "osm_type": "way", "ref": "US 71", "maxheight": null, "destination": "Saint Joseph;Des Moines", "junction:ref": "2G", "destination:ref": "I 29 North;I 35 North;US 71 North", "source:hgv": null, "name": null, "hgv": null, "destination:lanes": null, "NHS": null, "turn:lanes": null, "layer": null, "bridge": null, "surface": "asphalt", "oneway": "yes", "maxspeed": "45 mph", "lanes": "2", "highway": "motorway" }, "geometry": { "type": "LineString", "coordinates": [ [ -94.571274, 39.1048839 ], [ -94.5709817, 39.1052343 ], [ -94.5707074, 39.1056006 ], [ -94.5704778, 39.1058284 ], [ -94.5693617, 39.1068247 ] ] } },
{ "type": "Feature", "properties": { "full_id": "w562149945", "osm_id": "562149945", "osm_type": "way", "ref": "US 71", "maxheight": null, "destination": "Saint Louis;Joplin", "junction:ref": "3", "destination:ref": "I 70 East;US 40 East;US 71 South", "source:hgv": null, "name": null, "hgv": null, "destination:lanes": null, "NHS": null, "turn:lanes": null, "layer": null, "bridge": null, "surface": null, "oneway": "yes", "maxspeed": "45 mph", "lanes": "2", "highway": "motorway" }, "geometry": { "type": "LineString", "coordinates": [ [ -94.5713502, 39.1055596 ], [ -94.5715234, 39.105332 ], [ -94.5715854, 39.1052505 ], [ -94.5717447, 39.1049944 ], [ -94.5719913, 39.1045557 ], [ -94.5721459, 39.1043428 ] ] } },
{ "type": "Feature", "properties": { "full_id": "w1521472154", "osm_id": "1521472154", "osm_type": "way", "ref": "US 71", "maxheight": null, "destination": "Saint Louis;Joplin", "junction:ref": "3", "destination:ref": "I 70 East;US 40 East;US 71 South", "source:hgv": null, "name": null, "hgv": null, "destination:lanes": null, "NHS": null, "turn:lanes": null, "layer": null, "bridge": null, "surface": null, "oneway": "yes", "maxspeed": "45 mph", "lanes": "2", "highway": "motorway" }, "geometry": { "type": "LineString", "coordinates": [ [ -94.5700508, 39.1068034 ], [ -94.5703147, 39.1065809 ], [ -94.5704854, 39.1064485 ], [ -94.5707395, 39.1062395 ], [ -94.5709633, 39.1060246 ], [ -94.5711454, 39.1058068 ] ] } },
{ "type": "Feature", "properties": { "full_id": "w1521472155", "osm_id": "1521472155", "osm_type": "way", "ref": "US 71", "maxheight": "14'7\"", "destination": "Saint Louis;Joplin", "junction:ref": "3", "destination:ref": "I 70 East;US 40 East;US 71 South", "source:hgv": null, "name": null, "hgv": null, "destination:lanes": null, "NHS": null, "turn:lanes": null, "layer": null, "bridge": null, "surface": null, "oneway": "yes", "maxspeed": "45 mph", "lanes": "2", "highway": "motorway" }, "geometry": { "type": "LineString", "coordinates": [ [ -94.5711454, 39.1058068 ], [ -94.5713502, 39.1055596 ] ] } }
]
}
