{
"type": "FeatureCollection",
"name": "cleaver",
"crs": { "type": "name", "properties": { "name": "urn:ogc:def:crs:OGC:1.3:CRS84" } },
"features": [
{ "type": "Feature", "properties": { "full_id": "w18513128", "osm_id": "18513128", "osm_type": "way", "name": "Emanuel Cleaver II Boulevard", "turn:lanes": null, "turn:lanes:forward": null, "turn:lanes:backward": null, "cycleway:forward": null, "cycleway:backward": null, "bus:lanes:forward": null, "bus:lanes:backward": null, "bicycle:lanes:forward": null, "bicycle:lanes:backward": null, "access:lanes:forward": null, "access:lanes:backward": null, "tiger:name_direction_prefix_1": null, "cycleway:both": null, "turn:lanes:both_ways": null, "lanes:forward": null, "lanes:both_ways": null, "lanes:backward": null, "cycleway:right": null, "sidewalk:right": null, "sidewalk:left": null, "tiger:zip_right_1": null, "tiger:zip_left_1": null, "tiger:reviewed": null, "tiger:name_type_1": null, "tiger:name_base_1": null, "name_1": null, "tiger:zip_right": "64110", "tiger:zip_left": "64110", "tiger:name_type": "St", "tiger:name_direction_prefix": "E", "tiger:name_base": "47th", "tiger:county": "Jackson, MO", "tiger:cfcc": "A41", "surface": "asphalt", "oneway": "yes", "old_ref": "US 50", "lanes": "3", "highway": "secondary" }, "geometry": { "type": "LineString", "coordinates": [ [ -94.5825208, 39.041984 ], [ -94.5824407, 39.0419828 ], [ -94.5824099, 39.0419829 ], [ -94.5823123, 39.0419838 ] ] } },
{ "type": "Feature", "properties": { "full_id": "w18515916", "osm_id": "18515916", "osm_type": "way", "name": "Emanuel Cleaver II Boulevard", "turn:lanes": null, "turn:lanes:forward": null, "turn:lanes:backward": null, "cycleway:forward": null, "cycleway:backward": null, "bus:lanes:forward": null, "bus:lanes:backward": null, "bicycle:lanes:forward": null, "bicycle:lanes:backward": null, "access:lanes:forward": null, "access:lanes:backward": null, "tiger:name_direction_prefix_1": null, "cycleway:both": null, "turn:lanes:both_ways": null, "lanes:forward": null, "lanes:both_ways": null, "lanes:backward": null, "cycleway:right": null, "sidewalk:right": null, "sidewalk:left": null, "tiger:zip_right_1": null, "tiger:zip_left_1": null, "tiger:reviewed": "no", "tiger:name_type_1": "Blvd", "tiger:name_base_1": "Brush Creek", "name_1": "Brush Creek Boulevard", "tiger:zip_right": "64130", "tiger:zip_left": "64130", "tiger:name_type": "Blvd", "tiger:name_direction_prefix": null, "tiger:name_base": "Emanuel Cleaver II", "tiger:county": "Jackson, MO", "tiger:cfcc": "A41", "surface": "concrete", "oneway": null, "old_ref": null, "lanes": null, "highway": "secondary" }, "geometry": { "type": "LineString", "coordinates": [ [ -94.562351, 39.043595 ], [ -94.562175, 39.043582 ], [ -94.562156, 39.043579 ], [ -94.56214, 39.043579 ], [ -94.561876, 39.04353 ], [ -94.561649, 39.043489 ], [ -94.561457, 39.043428 ] ] } },
{ "type": "Feature", "properties": { "full_id": "w18515918", "osm_id": "18515918", "osm_type": "way", "name": "Emanuel Cleaver II Boulevard", "turn:lanes": null, "turn:lanes:forward": null, "turn:lanes:backward": null, "cycleway:forward": null, "cycleway:backward": null, "bus:lanes:forward": null, "bus:lanes:backward": null, "bicycle:lanes:forward": null, "bicycle:lanes:backward": null, "access:lanes:forward": null, "access:lanes:backward": null, "tiger:name_direction_prefix_1": null, "cycleway:both": null, "turn:lanes:both_ways": null, "lanes:forward": null, "lanes:both_ways": null, "lanes:backward": null, "cycleway:right": null, "sidewalk:right": null, "sidewalk:left": null, "tiger:zip_right_1": null, "tiger:zip_left_1": null, "tiger:reviewed": "no", "tiger:name_type_1": null, "tiger:name_base_1": null, "name_1": null, "tiger:zip_right": null, "tiger:zip_left": null, "tiger:name_type": "Blvd", "tiger:name_direction_prefix": null, "tiger:name_base": "Emanuel Cleaver II", "tiger:county": "Jackson, MO", "tiger:cfcc": "A41", "surface": null, "oneway": "yes", "old_ref": null, "lanes": null, "highway": "secondary" }, "geometry": { "type": "LineString", "coordinates": [ [ -94.5241496, 39.06535 ], [ -94.524296, 39.065081 ], [ -94.524664, 39.06434 ], [ -94.52485, 39.063628 ], [ -94.524923, 39.063196 ], [ -94.524975, 39.062616 ], [ -94.524978, 39.062093 ], [ -94.5249659, 39.0618187 ], [ -94.5249633, 39.0617606 ] ] } },
{ "type": "Feature", "properties": { "full_id": "w18516875", "osm_id": "18516875", "osm_type": "way", "name": "Emanuel Cleaver II Boulevard", "turn:lanes": null, "turn:lanes:forward": null, "turn:lanes:backward": null, "cycleway:forward": null, "cycleway:backward": null, "bus:lanes:forward": null, "bus:lanes:backward": null, "bicycle:lanes:forward": null, "bicycle:lanes:backward": null, "access:lanes:forward": null, "access:lanes:backward": null, "tiger:name_direction_prefix_1": null, "cycleway:both": null, "turn:lanes:both_ways": null, "lanes:forward": null, "lanes:both_ways": null, "lanes:backward": null, "cycleway:right": null, "sidewalk:right": null, "sidewalk:left": null, "tiger:zip_right_1": "64130", "tiger:zip_left_1": "64130", "tiger:reviewed": "no", "tiger:name_type_1": "Blvd", "tiger:name_base_1": "Emanuel Cleaver II", "name_1": "Emanuel Cleaver II Boulevard", "tiger:zip_right": "64127", "tiger:zip_left": "64128", "tiger:name_type": "Blvd", "tiger:name_direction_prefix": null, "tiger:name_base": "Van Brunt", "tiger:county": "Jackson, MO", "tiger:cfcc": "A41", "surface": null, "oneway": "yes", "old_ref": null, "lanes": null, "highway": "secondary" }, "geometry": { "type": "LineString", "coordinates": [ [ -94.531422, 39.0379511 ], [ -94.530418, 39.038228 ], [ -94.529783, 39.038494 ], [ -94.529299, 39.038737 ], [ -94.52866, 39.039118 ], [ -94.528246, 39.039404 ], [ -94.527858, 39.039713 ], [ -94.527454, 39.040087 ], [ -94.527194, 39.040382 ], [ -94.527016, 39.040612 ], [ -94.526805, 39.040929 ], [ -94.526628, 39.041245 ], [ -94.526403, 39.041822 ], [ -94.5262247, 39.0425465 ], [ -94.526088, 39.042997 ], [ -94.525926, 39.043402 ], [ -94.525801, 39.043651 ] ] } },
{ "type": "Feature", "properties": { "full_id": "w18539171", "osm_id": "18539171", "osm_type": "way", "name": "Emanuel Cleaver II Boulevard", "turn:lanes": null, "turn:lanes:forward": null, "turn:lanes:backward": null, "cycleway:forward": null, "cycleway:backward": null, "bus:lanes:forward": null, "bus:lanes:backward": null, "bicycle:lanes:forward": null, "bicycle:lanes:backward": null, "access:lanes:forward": null, "access:lanes:backward": null, "tiger:name_direction_prefix_1": null, "cycleway:both": null, "turn:lanes:both_ways": null, "lanes:forward": null, "lanes:both_ways": null, "lanes:backward": null, "cycleway:right": null, "sidewalk:right": "no", "sidewalk:left": "separate", "tiger:zip_right_1": null, "tiger:zip_left_1": null, "tiger:reviewed": "no", "tiger:name_type_1": null, "tiger:name_base_1": null, "name_1": null, "tiger:zip_right": "64130", "tiger:zip_left": "64130", "tiger:name_type": "Blvd", "tiger:name_direction_prefix": null, "tiger:name_base": "Brush Creek", "tiger:county": "Jackson, MO", "tiger:cfcc": "A41", "surface": "concrete", "oneway": null, "old_ref": null, "lanes": null, "highway": "secondary" }, "geometry": { "type": "LineString", "coordinates": [ [ -94.5606285, 39.0431693 ], [ -94.5593685, 39.042759 ] ] } },
{ "type": "Feature", "properties": { "full_id": "w18539174", "osm_id": "18539174", "osm_type": "way", "name": "Emanuel Cleaver II Boulevard", "turn:lanes": null, "turn:lanes:forward": null, "turn:lanes:backward": null, "cycleway:forward": null, "cycleway:backward": null, "bus:lanes:forward": null, "bus:lanes:backward": null, "bicycle:lanes:forward": null, "bicycle:lanes:backward": null, "access:lanes:forward": null, "access:lanes:backward": null, "tiger:name_direction_prefix_1": null, "cycleway:both": null, "turn:lanes:both_ways": null, "lanes:forward": null, "lanes:both_ways": null, "lanes:backward": null, "cycleway:right": null, "sidewalk:right": null, "sidewalk:left": null, "tiger:zip_right_1": null, "tiger:zip_left_1": null, "tiger:reviewed": null, "tiger:name_type_1": null, "tiger:name_base_1": null, "name_1": null, "tiger:zip_right": "64112", "tiger:zip_left": "64112", "tiger:name_type": "Blvd", "tiger:name_direction_prefix": null, "tiger:name_base": "Brush Creek", "tiger:county": "Jackson, MO", "tiger:cfcc": "A41", "surface": "asphalt", "oneway": "yes", "old_ref": "US 50", "lanes": "3", "highway": "secondary" }, "geometry": { "type": "LineString", "coordinates": [ [ -94.5868317, 39.0421212 ], [ -94.5866394, 39.0421202 ] ] } },
{ "type": "Feature", "properties": { "full_id": "w18539176", "osm_id": "18539176", "osm_type": "way", "name": "Emanuel Cleaver II Boulevard", "turn:lanes": null, "turn:lanes:forward": null, "turn:lanes:backward": null, "cycleway:forward": null, "cycleway:backward": null, "bus:lanes:forward": null, "bus:lanes:backward": null, "bicycle:lanes:forward": null, "bicycle:lanes:backward": null, "access:lanes:forward": null, "access:lanes:backward": null, "tiger:name_direction_prefix_1": null, "cycleway:both": null, "turn:lanes:both_ways": null, "lanes:forward": null, "lanes:both_ways": null, "lanes:backward": null, "cycleway:right": "lane", "sidewalk:right": null, "sidewalk:left": null, "tiger:zip_right_1": null, "tiger:zip_left_1": null, "tiger:reviewed": null, "tiger:name_type_1": null, "tiger:name_base_1": null, "name_1": null, "tiger:zip_right": "64110", "tiger:zip_left": "64110", "tiger:name_type": "Blvd", "tiger:name_direction_prefix": null, "tiger:name_base": "Brush Creek", "tiger:county": "Jackson, MO", "tiger:cfcc": "A41", "surface": "asphalt", "oneway": "yes", "old_ref": null, "lanes": "3", "highway": "secondary" }, "geometry": { "type": "LineString", "coordinates": [ [ -94.5681478, 39.0416291 ], [ -94.56806, 39.0416376 ], [ -94.5672409, 39.041717 ], [ -94.5668641, 39.0417847 ], [ -94.5666353, 39.0418304 ], [ -94.5663793, 39.0418884 ], [ -94.5660491, 39.041995 ], [ -94.5659568, 39.0420302 ], [ -94.5657197, 39.0421206 ], [ -94.5652625, 39.0424116 ] ] } },
{ "type": "Feature", "properties": { "full_id": "w49131612", "osm_id": "49131612", "osm_type": "way", "name": "Emanuel Cleaver II Boulevard", "turn:lanes": null, "turn:lanes:forward": null, "turn:lanes:backward": null, "cycleway:forward": null, "cycleway:backward": null, "bus:lanes:forward": null, "bus:lanes:backward": null, "bicycle:lanes:forward": null, "bicycle:lanes:backward": null, "access:lanes:forward": null, "access:lanes:backward": null, "tiger:name_direction_prefix_1": null, "cycleway:both": null, "turn:lanes:both_ways": null, "lanes:forward": null, "lanes:both_ways": null, "lanes:backward": null, "cycleway:right": null, "sidewalk:right": null, "sidewalk:left": null, "tiger:zip_right_1": null, "tiger:zip_left_1": null, "tiger:reviewed": null, "tiger:name_type_1": null, "tiger:name_base_1": null, "name_1": null, "tiger:zip_right": "64110", "tiger:zip_left": null, "tiger:name_type": "Blvd", "tiger:name_direction_prefix": null, "tiger:name_base": "Brush Creek", "tiger:county": "Jackson, MO", "tiger:cfcc": "A41", "surface": null, "oneway": "yes", "old_ref": "US 50", "lanes": "2", "highway": "secondary" }, "geometry": { "type": "LineString", "coordinates": [ [ -94.5799599, 39.0420804 ], [ -94.5805513, 39.0420965 ], [ -94.5816663, 39.0421314 ], [ -94.5821813, 39.0421444 ], [ -94.5822969, 39.0421475 ] ] } },
{ "type": "Feature", "properties": { "full_id": "w67286702", "osm_id": "67286702", "osm_type": "way", "name": "Emanuel Cleaver II Boulevard", "turn:lanes": null, "turn:lanes:forward": null, "turn:lanes:backward": null, "cycleway:forward": null, "cycleway:backward": null, "bus:lanes:forward": null, "bus:lanes:backward": null, "bicycle:lanes:forward": null, "bicycle:lanes:backward": null, "access:lanes:forward": null, "access:lanes:backward": null, "tiger:name_direction_prefix_1": null, "cycleway:both": null, "turn:lanes:both_ways": "left", "lanes:forward": "1", "lanes:both_ways": "1", "lanes:backward": "1", "cycleway:right": null, "sidewalk:right": null, "sidewalk:left": null, "tiger:zip_right_1": null, "tiger:zip_left_1": null, "tiger:reviewed": null, "tiger:name_type_1": null, "tiger:name_base_1": null, "name_1": null, "tiger:zip_right": "64110", "tiger:zip_left": "64110", "tiger:name_type": "St", "tiger:name_direction_prefix": "E", "tiger:name_base": "47th", "tiger:county": "Jackson, MO", "tiger:cfcc": "A41", "surface": null, "oneway": "no", "old_ref": "US 50", "lanes": "3", "highway": "secondary" }, "geometry": { "type": "LineString", "coordinates": [ [ -94.5764262, 39.0418101 ], [ -94.5752815, 39.0417726 ], [ -94.5743603, 39.0417384 ], [ -94.5741403, 39.0417246 ] ] } },
{ "type": "Feature", "properties": { "full_id": "w71549524", "osm_id": "71549524", "osm_type": "way", "name": "Emanuel Cleaver II Boulevard", "turn:lanes": null, "turn:lanes:forward": null, "turn:lanes:backward": null, "cycleway:forward": null, "cycleway:backward": null, "bus:lanes:forward": null, "bus:lanes:backward": null, "bicycle:lanes:forward": null, "bicycle:lanes:backward": null, "access:lanes:forward": null, "access:lanes:backward": null, "tiger:name_direction_prefix_1": null, "cycleway:both": null, "turn:lanes:both_ways": null, "lanes:forward": null, "lanes:both_ways": null, "lanes:backward": null, "cycleway:right": null, "sidewalk:right": null, "sidewalk:left": null, "tiger:zip_right_1": null, "tiger:zip_left_1": null, "tiger:reviewed": null, "tiger:name_type_1": null, "tiger:name_base_1": null, "name_1": null, "tiger:zip_right": "64110", "tiger:zip_left": "64110", "tiger:name_type": "Blvd", "tiger:name_direction_prefix": null, "tiger:name_base": "Brush Creek", "tiger:county": "Jackson, MO", "tiger:cfcc": "A41", "surface": "asphalt", "oneway": "yes", "old_ref": null, "lanes": "3", "highway": "secondary" }, "geometry": { "type": "LineString", "coordinates": [ [ -94.5652625, 39.0424116 ], [ -94.5658229, 39.0422056 ], [ -94.5661411, 39.0421102 ], [ -94.5663775, 39.0420425 ], [ -94.5664825, 39.0420124 ], [ -94.5667441, 39.0419479 ], [ -94.566984, 39.0418979 ], [ -94.5672944, 39.0418519 ] ] } },
{ "type": "Feature", "properties": { "full_id": "w71549531", "osm_id": "71549531", "osm_type": "way", "name": "Emanuel Cleaver II Boulevard", "turn:lanes": null, "turn:lanes:forward": null, "turn:lanes:backward": null, "cycleway:forward": null, "cycleway:backward": null, "bus:lanes:forward": null, "bus:lanes:backward": null, "bicycle:lanes:forward": null, "bicycle:lanes:backward": null, "access:lanes:forward": null, "access:lanes:backward": null, "tiger:name_direction_prefix_1": null, "cycleway:both": null, "turn:lanes:both_ways": null, "lanes:forward": null, "lanes:both_ways": null, "lanes:backward": null, "cycleway:right": null, "sidewalk:right": null, "sidewalk:left": null, "tiger:zip_right_1": null, "tiger:zip_left_1": null, "tiger:reviewed": null, "tiger:name_type_1": null, "tiger:name_base_1": null, "name_1": null, "tiger:zip_right": "64110", "tiger:zip_left": "64110", "tiger:name_type": "Blvd", "tiger:name_direction_prefix": null, "tiger:name_base": "Brush Creek", "tiger:county": "Jackson, MO", "tiger:cfcc": "A41", "surface": null, "oneway": null, "old_ref": null, "lanes": "4", "highway": "secondary" }, "geometry": { "type": "LineString", "coordinates": [ [ -94.5652625, 39.0424116 ], [ -94.5650343, 39.0425299 ], [ -94.5649602, 39.0425792 ], [ -94.5642533, 39.043049 ], [ -94.5638847, 39.0432572 ], [ -94.56353, 39.0433997 ], [ -94.5631483, 39.0435163 ], [ -94.5626964, 39.0436007 ], [ -94.562351, 39.043595 ] ] } },
{ "type": "Feature", "properties": { "full_id": "w100315965", "osm_id": "100315965", "osm_type": "way", "name": "Emanuel Cleaver II Boulevard", "turn:lanes": null, "turn:lanes:forward": null, "turn:lanes:backward": null, "cycleway:forward": null, "cycleway:backward": null, "bus:lanes:forward": null, "bus:lanes:backward": null, "bicycle:lanes:forward": null, "bicycle:lanes:backward": null, "access:lanes:forward": null, "access:lanes:backward": null, "tiger:name_direction_prefix_1": null, "cycleway:both": null, "turn:lanes:both_ways": null, "lanes:forward": null, "lanes:both_ways": null, "lanes:backward": null, "cycleway:right": null, "sidewalk:right": null, "sidewalk:left": null, "tiger:zip_right_1": null, "tiger:zip_left_1": null, "tiger:reviewed": "no", "tiger:name_type_1": null, "tiger:name_base_1": null, "name_1": null, "tiger:zip_right": "64130", "tiger:zip_left": "64130", "tiger:name_type": "Blvd", "tiger:name_direction_prefix": null, "tiger:name_base": "Brush Creek", "tiger:county": "Jackson, MO", "tiger:cfcc": "A41", "surface": null, "oneway": "yes", "old_ref": null, "lanes": null, "highway": "secondary" }, "geometry": { "type": "LineString", "coordinates": [ [ -94.543107, 39.039089 ], [ -94.543075, 39.039044 ], [ -94.54293, 39.038926 ], [ -94.542667, 39.03877 ], [ -94.542437, 39.038678 ], [ -94.542098, 39.038611 ] ] } },
{ "type": "Feature", "properties": { "full_id": "w243933365", "osm_id": "243933365", "osm_type": "way", "name": "Emanuel Cleaver II Boulevard", "turn:lanes": null, "turn:lanes:forward": null, "turn:lanes:backward": null, "cycleway:forward": null, "cycleway:backward": null, "bus:lanes:forward": null, "bus:lanes:backward": null, "bicycle:lanes:forward": null, "bicycle:lanes:backward": null, "access:lanes:forward": null, "access:lanes:backward": null, "tiger:name_direction_prefix_1": null, "cycleway:both": null, "turn:lanes:both_ways": null, "lanes:forward": null, "lanes:both_ways": null, "lanes:backward": null, "cycleway:right": null, "sidewalk:right": null, "sidewalk:left": null, "tiger:zip_right_1": null, "tiger:zip_left_1": null, "tiger:reviewed": "no", "tiger:name_type_1": null, "tiger:name_base_1": null, "name_1": null, "tiger:zip_right": null, "tiger:zip_left": null, "tiger:name_type": "Blvd", "tiger:name_direction_prefix": null, "tiger:name_base": "Van Brunt", "tiger:county": "Jackson, MO", "tiger:cfcc": "A41", "surface": null, "oneway": "yes", "old_ref": null, "lanes": null, "highway": "secondary" }, "geometry": { "type": "LineString", "coordinates": [ [ -94.5210436, 39.0688627 ], [ -94.5211229, 39.0687549 ], [ -94.521264, 39.068563 ], [ -94.521304, 39.068518 ] ] } },
{ "type": "Feature", "properties": { "full_id": "w495058063", "osm_id": "495058063", "osm_type": "way", "name": "Emanuel Cleaver II Boulevard", "turn:lanes": null, "turn:lanes:forward": null, "turn:lanes:backward": null, "cycleway:forward": null, "cycleway:backward": null, "bus:lanes:forward": null, "bus:lanes:backward": null, "bicycle:lanes:forward": null, "bicycle:lanes:backward": null, "access:lanes:forward": null, "access:lanes:backward": null, "tiger:name_direction_prefix_1": null, "cycleway:both": null, "turn:lanes:both_ways": null, "lanes:forward": null, "lanes:both_ways": null, "lanes:backward": null, "cycleway:right": null, "sidewalk:right": null, "sidewalk:left": null, "tiger:zip_right_1": "64130", "tiger:zip_left_1": "64130", "tiger:reviewed": "no", "tiger:name_type_1": "Blvd", "tiger:name_base_1": "Emanuel Cleaver II", "name_1": "Emanuel Cleaver II Boulevard", "tiger:zip_right": "64127", "tiger:zip_left": "64128", "tiger:name_type": "Blvd", "tiger:name_direction_prefix": null, "tiger:name_base": "Van Brunt", "tiger:county": "Jackson, MO", "tiger:cfcc": "A41", "surface": null, "oneway": "yes", "old_ref": null, "lanes": null, "highway": "secondary" }, "geometry": { "type": "LineString", "coordinates": [ [ -94.5210162, 39.0684135 ], [ -94.52083, 39.068683 ], [ -94.5208052, 39.0687449 ], [ -94.5207627, 39.0688508 ] ] } },
{ "type": "Feature", "properties": { "full_id": "w495060168", "osm_id": "495060168", "osm_type": "way", "name": "Emanuel Cleaver II Boulevard", "turn:lanes": null, "turn:lanes:forward": null, "turn:lanes:backward": null, "cycleway:forward": null, "cycleway:backward": null, "bus:lanes:forward": null, "bus:lanes:backward": null, "bicycle:lanes:forward": null, "bicycle:lanes:backward": null, "access:lanes:forward": null, "access:lanes:backward": null, "tiger:name_direction_prefix_1": null, "cycleway:both": null, "turn:lanes:both_ways": null, "lanes:forward": null, "lanes:both_ways": null, "lanes:backward": null, "cycleway:right": null, "sidewalk:right": null, "sidewalk:left": null, "tiger:zip_right_1": "64130", "tiger:zip_left_1": "64130", "tiger:reviewed": "no", "tiger:name_type_1": "Blvd", "tiger:name_base_1": "Emanuel Cleaver II", "name_1": "Emanuel Cleaver II Boulevard", "tiger:zip_right": "64127", "tiger:zip_left": "64128", "tiger:name_type": "Blvd", "tiger:name_direction_prefix": null, "tiger:name_base": "Van Brunt", "tiger:county": "Jackson, MO", "tiger:cfcc": "A41", "surface": null, "oneway": "yes", "old_ref": null, "lanes": null, "highway": "secondary" }, "geometry": { "type": "LineString", "coordinates": [ [ -94.5206546, 39.0543825 ], [ -94.520664, 39.054923 ], [ -94.520744, 39.055363 ], [ -94.520828, 39.055633 ], [ -94.5209837, 39.0559784 ], [ -94.521107, 39.056252 ], [ -94.521229, 39.056483 ], [ -94.5212648, 39.0565537 ], [ -94.5215076, 39.0569326 ], [ -94.52181, 39.057308 ], [ -94.522725, 39.058247 ], [ -94.523079, 39.05861 ], [ -94.523544, 39.059061 ], [ -94.5238143, 39.0593577 ], [ -94.5239824, 39.0595643 ], [ -94.5242046, 39.0598959 ], [ -94.524362, 39.0601714 ], [ -94.5244953, 39.060471 ], [ -94.5245861, 39.0607167 ], [ -94.5246475, 39.0609388 ], [ -94.524698, 39.0611303 ], [ -94.5247379, 39.0613019 ], [ -94.5247677, 39.0614704 ], [ -94.5247911, 39.0616984 ], [ -94.5247971, 39.0617563 ], [ -94.5248001, 39.0618139 ], [ -94.524814, 39.062081 ], [ -94.524801, 39.062374 ], [ -94.524736, 39.062884 ], [ -94.524673, 39.06321 ], [ -94.524588, 39.063533 ], [ -94.524482, 39.063853 ], [ -94.52435, 39.064177 ], [ -94.524186, 39.064505 ], [ -94.523993, 39.064823 ], [ -94.52383, 39.065055 ], [ -94.5236238, 39.0653292 ], [ -94.521466, 39.067823 ], [ -94.521058, 39.068353 ] ] } },
{ "type": "Feature", "properties": { "full_id": "w495060170", "osm_id": "495060170", "osm_type": "way", "name": "Emanuel Cleaver II Boulevard", "turn:lanes": null, "turn:lanes:forward": null, "turn:lanes:backward": null, "cycleway:forward": null, "cycleway:backward": null, "bus:lanes:forward": null, "bus:lanes:backward": null, "bicycle:lanes:forward": null, "bicycle:lanes:backward": null, "access:lanes:forward": null, "access:lanes:backward": null, "tiger:name_direction_prefix_1": null, "cycleway:both": null, "turn:lanes:both_ways": null, "lanes:forward": null, "lanes:both_ways": null, "lanes:backward": null, "cycleway:right": null, "sidewalk:right": null, "sidewalk:left": null, "tiger:zip_right_1": "64130", "tiger:zip_left_1": "64130", "tiger:reviewed": "no", "tiger:name_type_1": "Blvd", "tiger:name_base_1": "Emanuel Cleaver II", "name_1": "Emanuel Cleaver II Boulevard", "tiger:zip_right": "64127", "tiger:zip_left": "64128", "tiger:name_type": "Blvd", "tiger:name_direction_prefix": null, "tiger:name_base": "Van Brunt", "tiger:county": "Jackson, MO", "tiger:cfcc": "A41", "surface": null, "oneway": "yes", "old_ref": null, "lanes": null, "highway": "secondary" }, "geometry": { "type": "LineString", "coordinates": [ [ -94.525801, 39.043651 ], [ -94.52563, 39.043941 ], [ -94.525428, 39.044243 ], [ -94.523967, 39.046204 ], [ -94.523643, 39.046639 ], [ -94.5235531, 39.0467595 ], [ -94.523112, 39.047351 ], [ -94.522775, 39.047843 ], [ -94.522461, 39.048343 ], [ -94.522169, 39.048852 ], [ -94.521899, 39.049368 ], [ -94.521467, 39.050331 ], [ -94.521171, 39.051163 ], [ -94.521051, 39.051584 ], [ -94.520907, 39.052222 ], [ -94.520831, 39.052686 ], [ -94.520729, 39.053303 ], [ -94.520671, 39.05392 ], [ -94.5206566, 39.0543265 ], [ -94.5206546, 39.0543825 ] ] } },
{ "type": "Feature", "properties": { "full_id": "w495081689", "osm_id": "495081689", "osm_type": "way", "name": "Emanuel Cleaver II Boulevard", "turn:lanes": null, "turn:lanes:forward": null, "turn:lanes:backward": null, "cycleway:forward": null, "cycleway:backward": null, "bus:lanes:forward": null, "bus:lanes:backward": null, "bicycle:lanes:forward": null, "bicycle:lanes:backward": null, "access:lanes:forward": null, "access:lanes:backward": null, "tiger:name_direction_prefix_1": null, "cycleway:both": null, "turn:lanes:both_ways": null, "lanes:forward": null, "lanes:both_ways": null, "lanes:backward": null, "cycleway:right": null, "sidewalk:right": "no", "sidewalk:left": "separate", "tiger:zip_right_1": null, "tiger:zip_left_1": null, "tiger:reviewed": "no", "tiger:name_type_1": null, "tiger:name_base_1": null, "name_1": null, "tiger:zip_right": "64130", "tiger:zip_left": "64130", "tiger:name_type": "Blvd", "tiger:name_direction_prefix": null, "tiger:name_base": "Brush Creek", "tiger:county": "Jackson, MO", "tiger:cfcc": "A41", "surface": null, "oneway": null, "old_ref": null, "lanes": null, "highway": "secondary" }, "geometry": { "type": "LineString", "coordinates": [ [ -94.5593685, 39.042759 ], [ -94.5592165, 39.0427082 ], [ -94.558741, 39.0425483 ], [ -94.5573845, 39.0420929 ], [ -94.556658, 39.041849 ], [ -94.555506, 39.041471 ], [ -94.5547259, 39.0412206 ] ] } },
{ "type": "Feature", "properties": { "full_id": "w495083768", "osm_id": "495083768", "osm_type": "way", "name": "Emanuel Cleaver II Boulevard", "turn:lanes": null, "turn:lanes:forward": null, "turn:lanes:backward": null, "cycleway:forward": null, "cycleway:backward": null, "bus:lanes:forward": null, "bus:lanes:backward": null, "bicycle:lanes:forward": null, "bicycle:lanes:backward": null, "access:lanes:forward": null, "access:lanes:backward": null, "tiger:name_direction_prefix_1": null, "cycleway:both": null, "turn:lanes:both_ways": null, "lanes:forward": null, "lanes:both_ways": null, "lanes:backward": null, "cycleway:right": null, "sidewalk:right": null, "sidewalk:left": null, "tiger:zip_right_1": null, "tiger:zip_left_1": null, "tiger:reviewed": null, "tiger:name_type_1": null, "tiger:name_base_1": null, "name_1": null, "tiger:zip_right": "64110", "tiger:zip_left": null, "tiger:name_type": "Blvd", "tiger:name_direction_prefix": null, "tiger:name_base": "Brush Creek", "tiger:county": "Jackson, MO", "tiger:cfcc": "A41", "surface": null, "oneway": "yes", "old_ref": "US 50", "lanes": "3", "highway": "secondary" }, "geometry": { "type": "LineString", "coordinates": [ [ -94.5822969, 39.0421475 ], [ -94.5823844, 39.0421484 ], [ -94.5824235, 39.0421489 ], [ -94.5825302, 39.0421474 ], [ -94.5827099, 39.0421338 ], [ -94.5829285, 39.0421172 ], [ -94.5832249, 39.0421026 ], [ -94.5834542, 39.0420963 ], [ -94.5836882, 39.0421047 ], [ -94.5847896, 39.0421458 ], [ -94.585193, 39.0421608 ], [ -94.5855688, 39.0421751 ] ] } },
{ "type": "Feature", "properties": { "full_id": "w495083769", "osm_id": "495083769", "osm_type": "way", "name": "Emanuel Cleaver II Boulevard", "turn:lanes": null, "turn:lanes:forward": null, "turn:lanes:backward": null, "cycleway:forward": null, "cycleway:backward": null, "bus:lanes:forward": null, "bus:lanes:backward": null, "bicycle:lanes:forward": null, "bicycle:lanes:backward": null, "access:lanes:forward": null, "access:lanes:backward": null, "tiger:name_direction_prefix_1": null, "cycleway:both": null, "turn:lanes:both_ways": null, "lanes:forward": null, "lanes:both_ways": null, "lanes:backward": null, "cycleway:right": null, "sidewalk:right": null, "sidewalk:left": null, "tiger:zip_right_1": null, "tiger:zip_left_1": null, "tiger:reviewed": null, "tiger:name_type_1": null, "tiger:name_base_1": null, "name_1": null, "tiger:zip_right": "64110", "tiger:zip_left": "64110", "tiger:name_type": "St", "tiger:name_direction_prefix": "E", "tiger:name_base": "47th", "tiger:county": "Jackson, MO", "tiger:cfcc": "A41", "surface": null, "oneway": "yes", "old_ref": "US 50", "lanes": "2", "highway": "secondary" }, "geometry": { "type": "LineString", "coordinates": [ [ -94.5823123, 39.0419838 ], [ -94.5821901, 39.0419848 ], [ -94.5816793, 39.0419687 ], [ -94.580563, 39.0419335 ], [ -94.5799666, 39.0419147 ], [ -94.5794952, 39.0418976 ] ] } },
{ "type": "Feature", "properties": { "full_id": "w495111999", "osm_id": "495111999", "osm_type": "way", "name": "Emanuel Cleaver II Boulevard", "turn:lanes": null, "turn:lanes:forward": null, "turn:lanes:backward": null, "cycleway:forward": null, "cycleway:backward": null, "bus:lanes:forward": null, "bus:lanes:backward": null, "bicycle:lanes:forward": null, "bicycle:lanes:backward": null, "access:lanes:forward": null, "access:lanes:backward": null, "tiger:name_direction_prefix_1": null, "cycleway:both": null, "turn:lanes:both_ways": null, "lanes:forward": null, "lanes:both_ways": null, "lanes:backward": null, "cycleway:right": null, "sidewalk:right": null, "sidewalk:left": null, "tiger:zip_right_1": null, "tiger:zip_left_1": null, "tiger:reviewed": null, "tiger:name_type_1": null, "tiger:name_base_1": null, "name_1": null, "tiger:zip_right": "64112", "tiger:zip_left": "64112", "tiger:name_type": "Blvd", "tiger:name_direction_prefix": null, "tiger:name_base": "Brush Creek", "tiger:county": "Jackson, MO", "tiger:cfcc": "A41", "surface": null, "oneway": "yes", "old_ref": "US 50", "lanes": "3", "highway": "secondary" }, "geometry": { "type": "LineString", "coordinates": [ [ -94.5866394, 39.0421202 ], [ -94.5866071, 39.04212 ], [ -94.5865557, 39.0421197 ], [ -94.5864817, 39.0421193 ], [ -94.5863356, 39.0421114 ], [ -94.5861606, 39.0420899 ], [ -94.5858437, 39.0420799 ], [ -94.5856721, 39.042076 ], [ -94.5855765, 39.0420738 ], [ -94.585195, 39.042065 ], [ -94.5847957, 39.0420561 ], [ -94.5836924, 39.0420315 ], [ -94.5835699, 39.0420257 ], [ -94.5832778, 39.0420129 ], [ -94.5832103, 39.0420104 ], [ -94.5829268, 39.0419985 ], [ -94.5828446, 39.0419938 ], [ -94.5825208, 39.041984 ] ] } },
{ "type": "Feature", "properties": { "full_id": "w495296813", "osm_id": "495296813", "osm_type": "way", "name": "Emanuel Cleaver II Boulevard", "turn:lanes": null, "turn:lanes:forward": null, "turn:lanes:backward": null, "cycleway:forward": null, "cycleway:backward": null, "bus:lanes:forward": null, "bus:lanes:backward": null, "bicycle:lanes:forward": null, "bicycle:lanes:backward": null, "access:lanes:forward": null, "access:lanes:backward": null, "tiger:name_direction_prefix_1": null, "cycleway:both": null, "turn:lanes:both_ways": null, "lanes:forward": null, "lanes:both_ways": null, "lanes:backward": null, "cycleway:right": null, "sidewalk:right": null, "sidewalk:left": null, "tiger:zip_right_1": null, "tiger:zip_left_1": null, "tiger:reviewed": "no", "tiger:name_type_1": null, "tiger:name_base_1": null, "name_1": null, "tiger:zip_right": "64130", "tiger:zip_left": "64130", "tiger:name_type": "Blvd", "tiger:name_direction_prefix": null, "tiger:name_base": "Brush Creek", "tiger:county": "Jackson, MO", "tiger:cfcc": "A41", "surface": null, "oneway": "yes", "old_ref": null, "lanes": null, "highway": "secondary" }, "geometry": { "type": "LineString", "coordinates": [ [ -94.542098, 39.038611 ], [ -94.5419861, 39.0385901 ], [ -94.5407583, 39.0383616 ], [ -94.540637, 39.0383393 ] ] } },
{ "type": "Feature", "properties": { "full_id": "w495296819", "osm_id": "495296819", "osm_type": "way", "name": "Emanuel Cleaver II Boulevard", "turn:lanes": null, "turn:lanes:forward": null, "turn:lanes:backward": null, "cycleway:forward": null, "cycleway:backward": null, "bus:lanes:forward": null, "bus:lanes:backward": null, "bicycle:lanes:forward": null, "bicycle:lanes:backward": null, "access:lanes:forward": null, "access:lanes:backward": null, "tiger:name_direction_prefix_1": null, "cycleway:both": null, "turn:lanes:both_ways": null, "lanes:forward": null, "lanes:both_ways": null, "lanes:backward": null, "cycleway:right": null, "sidewalk:right": null, "sidewalk:left": null, "tiger:zip_right_1": null, "tiger:zip_left_1": null, "tiger:reviewed": "no", "tiger:name_type_1": null, "tiger:name_base_1": null, "name_1": null, "tiger:zip_right": "64130", "tiger:zip_left": "64130", "tiger:name_type": "Blvd", "tiger:name_direction_prefix": null, "tiger:name_base": "Brush Creek", "tiger:county": "Jackson, MO", "tiger:cfcc": "A41", "surface": null, "oneway": "yes", "old_ref": null, "lanes": null, "highway": "secondary" }, "geometry": { "type": "LineString", "coordinates": [ [ -94.540637, 39.0383393 ], [ -94.5405134, 39.0383167 ], [ -94.5390681, 39.0380523 ], [ -94.5390272, 39.0380444 ], [ -94.5388961, 39.0380192 ], [ -94.5383985, 39.0379234 ], [ -94.5368583, 39.0376373 ], [ -94.5363239, 39.0375613 ], [ -94.535734, 39.0375168 ], [ -94.5351581, 39.0375138 ], [ -94.5337291, 39.0375135 ], [ -94.5334444, 39.0375222 ], [ -94.5330889, 39.0375555 ], [ -94.5327014, 39.0376101 ], [ -94.5321839, 39.0377237 ], [ -94.5315213, 39.0379193 ], [ -94.531422, 39.0379511 ] ] } },
{ "type": "Feature", "properties": { "full_id": "w495380829", "osm_id": "495380829", "osm_type": "way", "name": "Emanuel Cleaver II Boulevard", "turn:lanes": null, "turn:lanes:forward": null, "turn:lanes:backward": null, "cycleway:forward": null, "cycleway:backward": null, "bus:lanes:forward": null, "bus:lanes:backward": null, "bicycle:lanes:forward": null, "bicycle:lanes:backward": null, "access:lanes:forward": null, "access:lanes:backward": null, "tiger:name_direction_prefix_1": null, "cycleway:both": null, "turn:lanes:both_ways": null, "lanes:forward": null, "lanes:both_ways": null, "lanes:backward": null, "cycleway:right": null, "sidewalk:right": null, "sidewalk:left": null, "tiger:zip_right_1": null, "tiger:zip_left_1": null, "tiger:reviewed": "no", "tiger:name_type_1": null, "tiger:name_base_1": null, "name_1": null, "tiger:zip_right": null, "tiger:zip_left": null, "tiger:name_type": "Blvd", "tiger:name_direction_prefix": null, "tiger:name_base": "Van Brunt", "tiger:county": "Jackson, MO", "tiger:cfcc": "A41", "surface": null, "oneway": "yes", "old_ref": null, "lanes": null, "highway": "secondary" }, "geometry": { "type": "LineString", "coordinates": [ [ -94.521304, 39.068518 ], [ -94.5214683, 39.0683323 ], [ -94.521511, 39.068284 ], [ -94.521643, 39.068153 ], [ -94.52203, 39.067826 ], [ -94.52238, 39.067499 ], [ -94.522715, 39.067163 ], [ -94.523189, 39.066642 ], [ -94.523485, 39.066284 ], [ -94.523813, 39.065853 ], [ -94.524016, 39.065548 ], [ -94.5241496, 39.06535 ] ] } },
{ "type": "Feature", "properties": { "full_id": "w495776769", "osm_id": "495776769", "osm_type": "way", "name": "Emanuel Cleaver II Boulevard", "turn:lanes": null, "turn:lanes:forward": null, "turn:lanes:backward": null, "cycleway:forward": null, "cycleway:backward": null, "bus:lanes:forward": null, "bus:lanes:backward": null, "bicycle:lanes:forward": null, "bicycle:lanes:backward": null, "access:lanes:forward": null, "access:lanes:backward": null, "tiger:name_direction_prefix_1": null, "cycleway:both": "lane", "turn:lanes:both_ways": null, "lanes:forward": null, "lanes:both_ways": null, "lanes:backward": null, "cycleway:right": null, "sidewalk:right": null, "sidewalk:left": null, "tiger:zip_right_1": null, "tiger:zip_left_1": null, "tiger:reviewed": null, "tiger:name_type_1": null, "tiger:name_base_1": null, "name_1": null, "tiger:zip_right": "64110", "tiger:zip_left": "64110", "tiger:name_type": "St", "tiger:name_direction_prefix": "E", "tiger:name_base": "47th", "tiger:county": "Jackson, MO", "tiger:cfcc": "A41", "surface": null, "oneway": "no", "old_ref": "US 50", "lanes": "4", "highway": "secondary" }, "geometry": { "type": "LineString", "coordinates": [ [ -94.5722234, 39.0416579 ], [ -94.5717553, 39.0416384 ], [ -94.5709539, 39.0416056 ], [ -94.5706023, 39.0415913 ], [ -94.5700338, 39.041568 ], [ -94.5699719, 39.0415687 ], [ -94.5695532, 39.0415738 ] ] } },
{ "type": "Feature", "properties": { "full_id": "w533663268", "osm_id": "533663268", "osm_type": "way", "name": "Emanuel Cleaver II Boulevard", "turn:lanes": null, "turn:lanes:forward": null, "turn:lanes:backward": null, "cycleway:forward": null, "cycleway:backward": null, "bus:lanes:forward": null, "bus:lanes:backward": null, "bicycle:lanes:forward": null, "bicycle:lanes:backward": null, "access:lanes:forward": null, "access:lanes:backward": null, "tiger:name_direction_prefix_1": "E", "cycleway:both": null, "turn:lanes:both_ways": null, "lanes:forward": null, "lanes:both_ways": null, "lanes:backward": null, "cycleway:right": null, "sidewalk:right": null, "sidewalk:left": null, "tiger:zip_right_1": null, "tiger:zip_left_1": null, "tiger:reviewed": null, "tiger:name_type_1": "St", "tiger:name_base_1": "47th", "name_1": null, "tiger:zip_right": "64110", "tiger:zip_left": "64110", "tiger:name_type": "St", "tiger:name_direction_prefix": "E", "tiger:name_base": "47:47th", "tiger:county": "Jackson, MO", "tiger:cfcc": "A41", "surface": null, "oneway": "yes", "old_ref": "US 50", "lanes": "2", "highway": "secondary" }, "geometry": { "type": "LineString", "coordinates": [ [ -94.5785313, 39.0418941 ], [ -94.5786874, 39.0419248 ] ] } },
{ "type": "Feature", "properties": { "full_id": "w533663270", "osm_id": "533663270", "osm_type": "way", "name": "Emanuel Cleaver II Boulevard", "turn:lanes": null, "turn:lanes:forward": null, "turn:lanes:backward": null, "cycleway:forward": null, "cycleway:backward": null, "bus:lanes:forward": null, "bus:lanes:backward": null, "bicycle:lanes:forward": null, "bicycle:lanes:backward": null, "access:lanes:forward": null, "access:lanes:backward": null, "tiger:name_direction_prefix_1": null, "cycleway:both": null, "turn:lanes:both_ways": null, "lanes:forward": null, "lanes:both_ways": null, "lanes:backward": null, "cycleway:right": "lane", "sidewalk:right": null, "sidewalk:left": null, "tiger:zip_right_1": null, "tiger:zip_left_1": null, "tiger:reviewed": null, "tiger:name_type_1": null, "tiger:name_base_1": null, "name_1": null, "tiger:zip_right": "64110", "tiger:zip_left": "64110", "tiger:name_type": "Blvd", "tiger:name_direction_prefix": null, "tiger:name_base": "Brush Creek", "tiger:county": "Jackson, MO", "tiger:cfcc": "A41", "surface": null, "oneway": "yes", "old_ref": null, "lanes": "2", "highway": "secondary" }, "geometry": { "type": "LineString", "coordinates": [ [ -94.5684087, 39.041743 ], [ -94.5685212, 39.0417285 ], [ -94.5686524, 39.0417155 ], [ -94.5692156, 39.0416595 ], [ -94.5692604, 39.0416554 ] ] } },
{ "type": "Feature", "properties": { "full_id": "w877723583", "osm_id": "877723583", "osm_type": "way", "name": "Emanuel Cleaver II Boulevard", "turn:lanes": null, "turn:lanes:forward": "left|through;right|none", "turn:lanes:backward": "through|merge_to_left", "cycleway:forward": "share_busway", "cycleway:backward": "share_busway", "bus:lanes:forward": "yes|yes|designated", "bus:lanes:backward": "yes|designated", "bicycle:lanes:forward": "yes|yes|yes", "bicycle:lanes:backward": "yes|yes", "access:lanes:forward": "yes|yes|no", "access:lanes:backward": "yes|no", "tiger:name_direction_prefix_1": null, "cycleway:both": null, "turn:lanes:both_ways": null, "lanes:forward": "3", "lanes:both_ways": null, "lanes:backward": "2", "cycleway:right": "lane", "sidewalk:right": null, "sidewalk:left": null, "tiger:zip_right_1": null, "tiger:zip_left_1": null, "tiger:reviewed": null, "tiger:name_type_1": null, "tiger:name_base_1": null, "name_1": null, "tiger:zip_right": "64110", "tiger:zip_left": "64110", "tiger:name_type": "St", "tiger:name_direction_prefix": "E", "tiger:name_base": "47th", "tiger:county": "Jackson, MO", "tiger:cfcc": "A41", "surface": null, "oneway": "no", "old_ref": "US 50", "lanes": "5", "highway": "secondary" }, "geometry": { "type": "LineString", "coordinates": [ [ -94.5734433, 39.0416895 ], [ -94.5731004, 39.0416853 ], [ -94.5729601, 39.0416809 ] ] } },
{ "type": "Feature", "properties": { "full_id": "w983169584", "osm_id": "983169584", "osm_type": "way", "name": "Emanuel Cleaver II Boulevard", "turn:lanes": null, "turn:lanes:forward": null, "turn:lanes:backward": null, "cycleway:forward": null, "cycleway:backward": null, "bus:lanes:forward": null, "bus:lanes:backward": null, "bicycle:lanes:forward": null, "bicycle:lanes:backward": null, "access:lanes:forward": null, "access:lanes:backward": null, "tiger:name_direction_prefix_1": "E", "cycleway:both": null, "turn:lanes:both_ways": null, "lanes:forward": null, "lanes:both_ways": null, "lanes:backward": null, "cycleway:right": null, "sidewalk:right": null, "sidewalk:left": null, "tiger:zip_right_1": null, "tiger:zip_left_1": null, "tiger:reviewed": null, "tiger:name_type_1": "St", "tiger:name_base_1": "47th", "name_1": null, "tiger:zip_right": "64110", "tiger:zip_left": "64110", "tiger:name_type": "St", "tiger:name_direction_prefix": "E", "tiger:name_base": "47:47th", "tiger:county": "Jackson, MO", "tiger:cfcc": "A41", "surface": null, "oneway": "yes", "old_ref": "US 50", "lanes": "2", "highway": "secondary" }, "geometry": { "type": "LineString", "coordinates": [ [ -94.5786874, 39.0419248 ], [ -94.5787852, 39.0419381 ], [ -94.5796812, 39.0420598 ], [ -94.5797514, 39.042069 ], [ -94.5798215, 39.0420754 ], [ -94.5799599, 39.0420804 ] ] } },
{ "type": "Feature", "properties": { "full_id": "w983169586", "osm_id": "983169586", "osm_type": "way", "name": "Emanuel Cleaver II Boulevard", "turn:lanes": "left|through;right", "turn:lanes:forward": null, "turn:lanes:backward": null, "cycleway:forward": null, "cycleway:backward": null, "bus:lanes:forward": null, "bus:lanes:backward": null, "bicycle:lanes:forward": null, "bicycle:lanes:backward": null, "access:lanes:forward": null, "access:lanes:backward": null, "tiger:name_direction_prefix_1": null, "cycleway:both": null, "turn:lanes:both_ways": null, "lanes:forward": null, "lanes:both_ways": null, "lanes:backward": null, "cycleway:right": null, "sidewalk:right": null, "sidewalk:left": null, "tiger:zip_right_1": null, "tiger:zip_left_1": null, "tiger:reviewed": null, "tiger:name_type_1": null, "tiger:name_base_1": null, "name_1": null, "tiger:zip_right": "64110", "tiger:zip_left": "64110", "tiger:name_type": "St", "tiger:name_direction_prefix": "E", "tiger:name_base": "47th", "tiger:county": "Jackson, MO", "tiger:cfcc": "A41", "surface": null, "oneway": "yes", "old_ref": "US 50", "lanes": "2", "highway": "secondary" }, "geometry": { "type": "LineString", "coordinates": [ [ -94.5786675, 39.0418745 ], [ -94.5785313, 39.0418941 ] ] } },
{ "type": "Feature", "properties": { "full_id": "w1171947646", "osm_id": "1171947646", "osm_type": "way", "name": "Emanuel Cleaver II Boulevard", "turn:lanes": "left||", "turn:lanes:forward": null, "turn:lanes:backward": null, "cycleway:forward": null, "cycleway:backward": null, "bus:lanes:forward": null, "bus:lanes:backward": null, "bicycle:lanes:forward": null, "bicycle:lanes:backward": null, "access:lanes:forward": null, "access:lanes:backward": null, "tiger:name_direction_prefix_1": null, "cycleway:both": null, "turn:lanes:both_ways": null, "lanes:forward": null, "lanes:both_ways": null, "lanes:backward": null, "cycleway:right": "lane", "sidewalk:right": null, "sidewalk:left": null, "tiger:zip_right_1": null, "tiger:zip_left_1": null, "tiger:reviewed": null, "tiger:name_type_1": null, "tiger:name_base_1": null, "name_1": null, "tiger:zip_right": "64110", "tiger:zip_left": "64110", "tiger:name_type": "Blvd", "tiger:name_direction_prefix": null, "tiger:name_base": "Brush Creek", "tiger:county": "Jackson, MO", "tiger:cfcc": "A41", "surface": null, "oneway": "yes", "old_ref": null, "lanes": "3", "highway": "secondary" }, "geometry": { "type": "LineString", "coordinates": [ [ -94.5692604, 39.0416554 ], [ -94.5694394, 39.041632 ], [ -94.5694995, 39.0416171 ], [ -94.5695532, 39.0415738 ] ] } },
{ "type": "Feature", "properties": { "full_id": "w1193539615", "osm_id": "1193539615", "osm_type": "way", "name": "Emanuel Cleaver II Boulevard", "turn:lanes": null, "turn:lanes:forward": null, "turn:lanes:backward": null, "cycleway:forward": null, "cycleway:backward": null, "bus:lanes:forward": null, "bus:lanes:backward": null, "bicycle:lanes:forward": null, "bicycle:lanes:backward": null, "access:lanes:forward": null, "access:lanes:backward": null, "tiger:name_direction_prefix_1": null, "cycleway:both": null, "turn:lanes:both_ways": null, "lanes:forward": null, "lanes:both_ways": null, "lanes:backward": null, "cycleway:right": null, "sidewalk:right": null, "sidewalk:left": null, "tiger:zip_right_1": null, "tiger:zip_left_1": null, "tiger:reviewed": null, "tiger:name_type_1": null, "tiger:name_base_1": null, "name_1": null, "tiger:zip_right": "64110", "tiger:zip_left": null, "tiger:name_type": "Blvd", "tiger:name_direction_prefix": null, "tiger:name_base": "Brush Creek", "tiger:county": "Jackson, MO", "tiger:cfcc": "A41", "surface": null, "oneway": "yes", "old_ref": "US 50", "lanes": "3", "highway": "secondary" }, "geometry": { "type": "LineString", "coordinates": [ [ -94.5855688, 39.0421751 ], [ -94.5857508, 39.042182 ], [ -94.5865072, 39.0421962 ], [ -94.5865894, 39.0422052 ], [ -94.5866509, 39.042212 ], [ -94.5866575, 39.0422127 ] ] } },
{ "type": "Feature", "properties": { "full_id": "w1343007870", "osm_id": "1343007870", "osm_type": "way", "name": "Emanuel Cleaver II Boulevard", "turn:lanes": null, "turn:lanes:forward": null, "turn:lanes:backward": "left|through|right", "cycleway:forward": null, "cycleway:backward": null, "bus:lanes:forward": null, "bus:lanes:backward": null, "bicycle:lanes:forward": null, "bicycle:lanes:backward": null, "access:lanes:forward": null, "access:lanes:backward": null, "tiger:name_direction_prefix_1": null, "cycleway:both": null, "turn:lanes:both_ways": null, "lanes:forward": "2", "lanes:both_ways": null, "lanes:backward": "3", "cycleway:right": "lane", "sidewalk:right": null, "sidewalk:left": null, "tiger:zip_right_1": null, "tiger:zip_left_1": null, "tiger:reviewed": null, "tiger:name_type_1": null, "tiger:name_base_1": null, "name_1": null, "tiger:zip_right": "64110", "tiger:zip_left": "64110", "tiger:name_type": "St", "tiger:name_direction_prefix": "E", "tiger:name_base": "47th", "tiger:county": "Jackson, MO", "tiger:cfcc": "A41", "surface": null, "oneway": "no", "old_ref": "US 50", "lanes": "5", "highway": "secondary" }, "geometry": { "type": "LineString", "coordinates": [ [ -94.5729601, 39.0416809 ], [ -94.5727876, 39.0416755 ], [ -94.5727497, 39.0416743 ], [ -94.5724003, 39.0416635 ], [ -94.5722234, 39.0416579 ] ] } },
{ "type": "Feature", "properties": { "full_id": "w1343007877", "osm_id": "1343007877", "osm_type": "way", "name": "Emanuel Cleaver II Boulevard", "turn:lanes": null, "turn:lanes:forward": null, "turn:lanes:backward": null, "cycleway:forward": null, "cycleway:backward": null, "bus:lanes:forward": null, "bus:lanes:backward": null, "bicycle:lanes:forward": null, "bicycle:lanes:backward": null, "access:lanes:forward": null, "access:lanes:backward": null, "tiger:name_direction_prefix_1": null, "cycleway:both": null, "turn:lanes:both_ways": "left", "lanes:forward": "1", "lanes:both_ways": "1", "lanes:backward": "1", "cycleway:right": null, "sidewalk:right": null, "sidewalk:left": null, "tiger:zip_right_1": null, "tiger:zip_left_1": null, "tiger:reviewed": null, "tiger:name_type_1": null, "tiger:name_base_1": null, "name_1": null, "tiger:zip_right": "64110", "tiger:zip_left": "64110", "tiger:name_type": "St", "tiger:name_direction_prefix": "E", "tiger:name_base": "47th", "tiger:county": "Jackson, MO", "tiger:cfcc": "A41", "surface": null, "oneway": "no", "old_ref": "US 50", "lanes": "3", "highway": "secondary" }, "geometry": { "type": "LineString", "coordinates": [ [ -94.5739019, 39.0417087 ], [ -94.5737404, 39.041698 ], [ -94.5736086, 39.0416922 ], [ -94.5735109, 39.0416905 ], [ -94.5734433, 39.0416895 ] ] } },
{ "type": "Feature", "properties": { "full_id": "w1343007878", "osm_id": "1343007878", "osm_type": "way", "name": "Emanuel Cleaver II Boulevard", "turn:lanes": null, "turn:lanes:forward": null, "turn:lanes:backward": null, "cycleway:forward": null, "cycleway:backward": null, "bus:lanes:forward": null, "bus:lanes:backward": null, "bicycle:lanes:forward": null, "bicycle:lanes:backward": null, "access:lanes:forward": null, "access:lanes:backward": null, "tiger:name_direction_prefix_1": null, "cycleway:both": null, "turn:lanes:both_ways": null, "lanes:forward": null, "lanes:both_ways": null, "lanes:backward": null, "cycleway:right": "lane", "sidewalk:right": null, "sidewalk:left": null, "tiger:zip_right_1": null, "tiger:zip_left_1": null, "tiger:reviewed": null, "tiger:name_type_1": null, "tiger:name_base_1": null, "name_1": null, "tiger:zip_right": "64110", "tiger:zip_left": "64110", "tiger:name_type": "St", "tiger:name_direction_prefix": "E", "tiger:name_base": "47th", "tiger:county": "Jackson, MO", "tiger:cfcc": "A41", "surface": null, "oneway": "yes", "old_ref": "US 50", "lanes": "1", "highway": "secondary" }, "geometry": { "type": "LineString", "coordinates": [ [ -94.5741403, 39.0417246 ], [ -94.5741129, 39.041707 ], [ -94.5740792, 39.0416943 ], [ -94.5740472, 39.0416913 ], [ -94.5739591, 39.0416871 ], [ -94.5739273, 39.0416962 ], [ -94.5739019, 39.0417087 ] ] } },
{ "type": "Feature", "properties": { "full_id": "w1343007879", "osm_id": "1343007879", "osm_type": "way", "name": "Emanuel Cleaver II Boulevard", "turn:lanes": null, "turn:lanes:forward": null, "turn:lanes:backward": null, "cycleway:forward": null, "cycleway:backward": null, "bus:lanes:forward": null, "bus:lanes:backward": null, "bicycle:lanes:forward": null, "bicycle:lanes:backward": null, "access:lanes:forward": null, "access:lanes:backward": null, "tiger:name_direction_prefix_1": null, "cycleway:both": null, "turn:lanes:both_ways": null, "lanes:forward": null, "lanes:both_ways": null, "lanes:backward": null, "cycleway:right": null, "sidewalk:right": null, "sidewalk:left": null, "tiger:zip_right_1": null, "tiger:zip_left_1": null, "tiger:reviewed": null, "tiger:name_type_1": null, "tiger:name_base_1": null, "name_1": null, "tiger:zip_right": "64110", "tiger:zip_left": "64110", "tiger:name_type": "St", "tiger:name_direction_prefix": "E", "tiger:name_base": "47th", "tiger:county": "Jackson, MO", "tiger:cfcc": "A41", "surface": null, "oneway": "yes", "old_ref": "US 50", "lanes": "1", "highway": "secondary" }, "geometry": { "type": "LineString", "coordinates": [ [ -94.5739019, 39.0417087 ], [ -94.573926, 39.0417272 ], [ -94.5739584, 39.0417414 ], [ -94.5740427, 39.0417465 ], [ -94.574073, 39.0417483 ], [ -94.5741094, 39.0417386 ], [ -94.5741403, 39.0417246 ] ] } },
{ "type": "Feature", "properties": { "full_id": "w1343007895", "osm_id": "1343007895", "osm_type": "way", "name": "Emanuel Cleaver II Boulevard", "turn:lanes": null, "turn:lanes:forward": null, "turn:lanes:backward": null, "cycleway:forward": null, "cycleway:backward": null, "bus:lanes:forward": null, "bus:lanes:backward": null, "bicycle:lanes:forward": null, "bicycle:lanes:backward": null, "access:lanes:forward": null, "access:lanes:backward": null, "tiger:name_direction_prefix_1": null, "cycleway:both": null, "turn:lanes:both_ways": "left", "lanes:forward": "1", "lanes:both_ways": "1", "lanes:backward": "1", "cycleway:right": null, "sidewalk:right": null, "sidewalk:left": null, "tiger:zip_right_1": null, "tiger:zip_left_1": null, "tiger:reviewed": null, "tiger:name_type_1": null, "tiger:name_base_1": null, "name_1": null, "tiger:zip_right": "64110", "tiger:zip_left": "64110", "tiger:name_type": "St", "tiger:name_direction_prefix": "E", "tiger:name_base": "47th", "tiger:county": "Jackson, MO", "tiger:cfcc": "A41", "surface": null, "oneway": "no", "old_ref": "US 50", "lanes": "3", "highway": "secondary" }, "geometry": { "type": "LineString", "coordinates": [ [ -94.5785313, 39.0418941 ], [ -94.578452, 39.0418909 ], [ -94.5784064, 39.0418888 ], [ -94.5776144, 39.0418583 ], [ -94.5766752, 39.0418204 ] ] } },
{ "type": "Feature", "properties": { "full_id": "w1343007896", "osm_id": "1343007896", "osm_type": "way", "name": "Emanuel Cleaver II Boulevard", "turn:lanes": null, "turn:lanes:forward": null, "turn:lanes:backward": null, "cycleway:forward": null, "cycleway:backward": null, "bus:lanes:forward": null, "bus:lanes:backward": null, "bicycle:lanes:forward": null, "bicycle:lanes:backward": null, "access:lanes:forward": null, "access:lanes:backward": null, "tiger:name_direction_prefix_1": null, "cycleway:both": null, "turn:lanes:both_ways": "left", "lanes:forward": null, "lanes:both_ways": null, "lanes:backward": null, "cycleway:right": null, "sidewalk:right": null, "sidewalk:left": null, "tiger:zip_right_1": null, "tiger:zip_left_1": null, "tiger:reviewed": null, "tiger:name_type_1": null, "tiger:name_base_1": null, "name_1": null, "tiger:zip_right": "64110", "tiger:zip_left": "64110", "tiger:name_type": "St", "tiger:name_direction_prefix": "E", "tiger:name_base": "47th", "tiger:county": "Jackson, MO", "tiger:cfcc": "A41", "surface": null, "oneway": "yes", "old_ref": "US 50", "lanes": "1", "highway": "secondary" }, "geometry": { "type": "LineString", "coordinates": [ [ -94.5766752, 39.0418204 ], [ -94.5766564, 39.0418038 ], [ -94.5766231, 39.0417927 ], [ -94.5765283, 39.0417887 ], [ -94.5764931, 39.0417872 ], [ -94.5764546, 39.0417937 ], [ -94.5764262, 39.0418101 ] ] } },
{ "type": "Feature", "properties": { "full_id": "w1343007897", "osm_id": "1343007897", "osm_type": "way", "name": "Emanuel Cleaver II Boulevard", "turn:lanes": null, "turn:lanes:forward": null, "turn:lanes:backward": null, "cycleway:forward": null, "cycleway:backward": null, "bus:lanes:forward": null, "bus:lanes:backward": null, "bicycle:lanes:forward": null, "bicycle:lanes:backward": null, "access:lanes:forward": null, "access:lanes:backward": null, "tiger:name_direction_prefix_1": null, "cycleway:both": null, "turn:lanes:both_ways": "left", "lanes:forward": null, "lanes:both_ways": null, "lanes:backward": null, "cycleway:right": null, "sidewalk:right": null, "sidewalk:left": null, "tiger:zip_right_1": null, "tiger:zip_left_1": null, "tiger:reviewed": null, "tiger:name_type_1": null, "tiger:name_base_1": null, "name_1": null, "tiger:zip_right": "64110", "tiger:zip_left": "64110", "tiger:name_type": "St", "tiger:name_direction_prefix": "E", "tiger:name_base": "47th", "tiger:county": "Jackson, MO", "tiger:cfcc": "A41", "surface": null, "oneway": "yes", "old_ref": "US 50", "lanes": "1", "highway": "secondary" }, "geometry": { "type": "LineString", "coordinates": [ [ -94.5764262, 39.0418101 ], [ -94.5764598, 39.041827 ], [ -94.5764939, 39.0418347 ], [ -94.5765252, 39.041836 ], [ -94.5766204, 39.0418397 ], [ -94.5766528, 39.0418349 ], [ -94.5766752, 39.0418204 ] ] } },
{ "type": "Feature", "properties": { "full_id": "w1343007907", "osm_id": "1343007907", "osm_type": "way", "name": "Emanuel Cleaver II Boulevard", "turn:lanes": "left|through;right", "turn:lanes:forward": null, "turn:lanes:backward": null, "cycleway:forward": null, "cycleway:backward": null, "bus:lanes:forward": null, "bus:lanes:backward": null, "bicycle:lanes:forward": null, "bicycle:lanes:backward": null, "access:lanes:forward": null, "access:lanes:backward": null, "tiger:name_direction_prefix_1": null, "cycleway:both": null, "turn:lanes:both_ways": null, "lanes:forward": null, "lanes:both_ways": null, "lanes:backward": null, "cycleway:right": null, "sidewalk:right": null, "sidewalk:left": null, "tiger:zip_right_1": null, "tiger:zip_left_1": null, "tiger:reviewed": null, "tiger:name_type_1": null, "tiger:name_base_1": null, "name_1": null, "tiger:zip_right": "64110", "tiger:zip_left": "64110", "tiger:name_type": "St", "tiger:name_direction_prefix": "E", "tiger:name_base": "47th", "tiger:county": "Jackson, MO", "tiger:cfcc": "A41", "surface": null, "oneway": "yes", "old_ref": "US 50", "lanes": "2", "highway": "secondary" }, "geometry": { "type": "LineString", "coordinates": [ [ -94.5794952, 39.0418976 ], [ -94.5789414, 39.0418774 ], [ -94.5787478, 39.0418692 ], [ -94.5786675, 39.0418745 ] ] } },
{ "type": "Feature", "properties": { "full_id": "w1364758433", "osm_id": "1364758433", "osm_type": "way", "name": "Emanuel Cleaver II Boulevard", "turn:lanes": null, "turn:lanes:forward": null, "turn:lanes:backward": null, "cycleway:forward": null, "cycleway:backward": null, "bus:lanes:forward": null, "bus:lanes:backward": null, "bicycle:lanes:forward": null, "bicycle:lanes:backward": null, "access:lanes:forward": null, "access:lanes:backward": null, "tiger:name_direction_prefix_1": null, "cycleway:both": null, "turn:lanes:both_ways": null, "lanes:forward": null, "lanes:both_ways": null, "lanes:backward": null, "cycleway:right": null, "sidewalk:right": null, "sidewalk:left": null, "tiger:zip_right_1": null, "tiger:zip_left_1": null, "tiger:reviewed": "no", "tiger:name_type_1": null, "tiger:name_base_1": null, "name_1": null, "tiger:zip_right": "64130", "tiger:zip_left": "64130", "tiger:name_type": "Blvd", "tiger:name_direction_prefix": null, "tiger:name_base": "Brush Creek", "tiger:county": "Jackson, MO", "tiger:cfcc": "A41", "surface": null, "oneway": null, "old_ref": null, "lanes": null, "highway": "secondary" }, "geometry": { "type": "LineString", "coordinates": [ [ -94.5543632, 39.0411045 ], [ -94.5542118, 39.0410586 ], [ -94.554078, 39.041018 ], [ -94.553869, 39.040978 ], [ -94.553515, 39.040931 ], [ -94.553205, 39.040912 ], [ -94.552066, 39.040872 ], [ -94.5515939, 39.0408563 ], [ -94.551133, 39.040841 ], [ -94.5501978, 39.0408109 ], [ -94.54995, 39.0408 ], [ -94.5499403, 39.0407996 ], [ -94.548604, 39.040745 ], [ -94.547899, 39.040716 ], [ -94.5478047, 39.0407044 ], [ -94.547328, 39.040646 ], [ -94.546831, 39.040547 ], [ -94.546539, 39.040471 ], [ -94.546158, 39.040352 ], [ -94.54537, 39.040084 ], [ -94.544432, 39.039736 ], [ -94.543653, 39.039414 ], [ -94.543406, 39.03928 ], [ -94.543107, 39.039089 ] ] } },
{ "type": "Feature", "properties": { "full_id": "w1364758441", "osm_id": "1364758441", "osm_type": "way", "name": "Emanuel Cleaver II Boulevard", "turn:lanes": null, "turn:lanes:forward": null, "turn:lanes:backward": null, "cycleway:forward": null, "cycleway:backward": null, "bus:lanes:forward": null, "bus:lanes:backward": null, "bicycle:lanes:forward": null, "bicycle:lanes:backward": null, "access:lanes:forward": null, "access:lanes:backward": null, "tiger:name_direction_prefix_1": null, "cycleway:both": null, "turn:lanes:both_ways": null, "lanes:forward": null, "lanes:both_ways": null, "lanes:backward": null, "cycleway:right": null, "sidewalk:right": null, "sidewalk:left": null, "tiger:zip_right_1": null, "tiger:zip_left_1": null, "tiger:reviewed": "no", "tiger:name_type_1": null, "tiger:name_base_1": null, "name_1": null, "tiger:zip_right": "64130", "tiger:zip_left": "64130", "tiger:name_type": "Blvd", "tiger:name_direction_prefix": null, "tiger:name_base": "Brush Creek", "tiger:county": "Jackson, MO", "tiger:cfcc": "A41", "surface": null, "oneway": null, "old_ref": null, "lanes": null, "highway": "secondary" }, "geometry": { "type": "LineString", "coordinates": [ [ -94.5545743, 39.041172 ], [ -94.554493, 39.0411459 ], [ -94.5543632, 39.0411045 ] ] } },
{ "type": "Feature", "properties": { "full_id": "w1364758442", "osm_id": "1364758442", "osm_type": "way", "name": "Emanuel Cleaver II Boulevard", "turn:lanes": null, "turn:lanes:forward": null, "turn:lanes:backward": null, "cycleway:forward": null, "cycleway:backward": null, "bus:lanes:forward": null, "bus:lanes:backward": null, "bicycle:lanes:forward": null, "bicycle:lanes:backward": null, "access:lanes:forward": null, "access:lanes:backward": null, "tiger:name_direction_prefix_1": null, "cycleway:both": null, "turn:lanes:both_ways": null, "lanes:forward": null, "lanes:both_ways": null, "lanes:backward": null, "cycleway:right": null, "sidewalk:right": "no", "sidewalk:left": "separate", "tiger:zip_right_1": null, "tiger:zip_left_1": null, "tiger:reviewed": "no", "tiger:name_type_1": null, "tiger:name_base_1": null, "name_1": null, "tiger:zip_right": "64130", "tiger:zip_left": "64130", "tiger:name_type": "Blvd", "tiger:name_direction_prefix": null, "tiger:name_base": "Brush Creek", "tiger:county": "Jackson, MO", "tiger:cfcc": "A41", "surface": null, "oneway": null, "old_ref": null, "lanes": null, "highway": "secondary" }, "geometry": { "type": "LineString", "coordinates": [ [ -94.5547259, 39.0412206 ], [ -94.5545743, 39.041172 ] ] } },
{ "type": "Feature", "properties": { "full_id": "w1387184893", "osm_id": "1387184893", "osm_type": "way", "name": "Emanuel Cleaver II Boulevard", "turn:lanes": null, "turn:lanes:forward": null, "turn:lanes:backward": "left;through|none", "cycleway:forward": null, "cycleway:backward": null, "bus:lanes:forward": null, "bus:lanes:backward": null, "bicycle:lanes:forward": null, "bicycle:lanes:backward": null, "access:lanes:forward": null, "access:lanes:backward": null, "tiger:name_direction_prefix_1": null, "cycleway:both": null, "turn:lanes:both_ways": null, "lanes:forward": "2", "lanes:both_ways": null, "lanes:backward": "2", "cycleway:right": null, "sidewalk:right": "no", "sidewalk:left": "separate", "tiger:zip_right_1": null, "tiger:zip_left_1": null, "tiger:reviewed": "no", "tiger:name_type_1": null, "tiger:name_base_1": null, "name_1": null, "tiger:zip_right": "64130", "tiger:zip_left": "64130", "tiger:name_type": "Blvd", "tiger:name_direction_prefix": null, "tiger:name_base": "Brush Creek", "tiger:county": "Jackson, MO", "tiger:cfcc": "A41", "surface": "concrete", "oneway": null, "old_ref": null, "lanes": "4", "highway": "secondary" }, "geometry": { "type": "LineString", "coordinates": [ [ -94.5610764, 39.0433152 ], [ -94.5606285, 39.0431693 ] ] } },
{ "type": "Feature", "properties": { "full_id": "w1387184894", "osm_id": "1387184894", "osm_type": "way", "name": "Emanuel Cleaver II Boulevard", "turn:lanes": null, "turn:lanes:forward": null, "turn:lanes:backward": null, "cycleway:forward": null, "cycleway:backward": null, "bus:lanes:forward": null, "bus:lanes:backward": null, "bicycle:lanes:forward": null, "bicycle:lanes:backward": null, "access:lanes:forward": null, "access:lanes:backward": null, "tiger:name_direction_prefix_1": null, "cycleway:both": null, "turn:lanes:both_ways": null, "lanes:forward": null, "lanes:both_ways": null, "lanes:backward": null, "cycleway:right": null, "sidewalk:right": null, "sidewalk:left": null, "tiger:zip_right_1": null, "tiger:zip_left_1": null, "tiger:reviewed": "no", "tiger:name_type_1": null, "tiger:name_base_1": null, "name_1": null, "tiger:zip_right": "64130", "tiger:zip_left": "64130", "tiger:name_type": "Blvd", "tiger:name_direction_prefix": null, "tiger:name_base": "Brush Creek", "tiger:county": "Jackson, MO", "tiger:cfcc": "A41", "surface": "concrete", "oneway": null, "old_ref": null, "lanes": null, "highway": "secondary" }, "geometry": { "type": "LineString", "coordinates": [ [ -94.561457, 39.043428 ], [ -94.5612305, 39.0433633 ], [ -94.5610764, 39.0433152 ] ] } },
{ "type": "Feature", "properties": { "full_id": "w1388175095", "osm_id": "1388175095", "osm_type": "way", "name": "Emanuel Cleaver II Boulevard", "turn:lanes": null, "turn:lanes:forward": null, "turn:lanes:backward": null, "cycleway:forward": null, "cycleway:backward": null, "bus:lanes:forward": null, "bus:lanes:backward": null, "bicycle:lanes:forward": null, "bicycle:lanes:backward": null, "access:lanes:forward": null, "access:lanes:backward": null, "tiger:name_direction_prefix_1": null, "cycleway:both": null, "turn:lanes:both_ways": null, "lanes:forward": null, "lanes:both_ways": null, "lanes:backward": null, "cycleway:right": "lane", "sidewalk:right": null, "sidewalk:left": null, "tiger:zip_right_1": null, "tiger:zip_left_1": null, "tiger:reviewed": null, "tiger:name_type_1": null, "tiger:name_base_1": null, "name_1": null, "tiger:zip_right": "64110", "tiger:zip_left": "64110", "tiger:name_type": "Blvd", "tiger:name_direction_prefix": null, "tiger:name_base": "Brush Creek", "tiger:county": "Jackson, MO", "tiger:cfcc": "A41", "surface": "asphalt", "oneway": "yes", "old_ref": null, "lanes": "3", "highway": "secondary" }, "geometry": { "type": "LineString", "coordinates": [ [ -94.5695532, 39.0415738 ], [ -94.5694859, 39.0415391 ], [ -94.5694175, 39.0415282 ], [ -94.5693467, 39.0415275 ], [ -94.5691257, 39.0415468 ], [ -94.5690481, 39.0415542 ] ] } },
{ "type": "Feature", "properties": { "full_id": "w1388175096", "osm_id": "1388175096", "osm_type": "way", "name": "Emanuel Cleaver II Boulevard", "turn:lanes": "left|none|none", "turn:lanes:forward": null, "turn:lanes:backward": null, "cycleway:forward": null, "cycleway:backward": null, "bus:lanes:forward": null, "bus:lanes:backward": null, "bicycle:lanes:forward": null, "bicycle:lanes:backward": null, "access:lanes:forward": null, "access:lanes:backward": null, "tiger:name_direction_prefix_1": null, "cycleway:both": null, "turn:lanes:both_ways": null, "lanes:forward": null, "lanes:both_ways": null, "lanes:backward": null, "cycleway:right": "lane", "sidewalk:right": null, "sidewalk:left": null, "tiger:zip_right_1": null, "tiger:zip_left_1": null, "tiger:reviewed": null, "tiger:name_type_1": null, "tiger:name_base_1": null, "name_1": null, "tiger:zip_right": "64110", "tiger:zip_left": "64110", "tiger:name_type": "Blvd", "tiger:name_direction_prefix": null, "tiger:name_base": "Brush Creek", "tiger:county": "Jackson, MO", "tiger:cfcc": "A41", "surface": "asphalt", "oneway": "yes", "old_ref": null, "lanes": "3", "highway": "secondary" }, "geometry": { "type": "LineString", "coordinates": [ [ -94.5690481, 39.0415542 ], [ -94.5685315, 39.0416031 ], [ -94.5684159, 39.0416141 ], [ -94.5681478, 39.0416291 ] ] } },
{ "type": "Feature", "properties": { "full_id": "w1461768654", "osm_id": "1461768654", "osm_type": "way", "name": "Emanuel Cleaver II Boulevard", "turn:lanes": "left|through|through|right", "turn:lanes:forward": null, "turn:lanes:backward": null, "cycleway:forward": null, "cycleway:backward": null, "bus:lanes:forward": null, "bus:lanes:backward": null, "bicycle:lanes:forward": null, "bicycle:lanes:backward": null, "access:lanes:forward": null, "access:lanes:backward": null, "tiger:name_direction_prefix_1": null, "cycleway:both": null, "turn:lanes:both_ways": null, "lanes:forward": null, "lanes:both_ways": null, "lanes:backward": null, "cycleway:right": null, "sidewalk:right": null, "sidewalk:left": null, "tiger:zip_right_1": null, "tiger:zip_left_1": null, "tiger:reviewed": null, "tiger:name_type_1": null, "tiger:name_base_1": null, "name_1": null, "tiger:zip_right": "64110", "tiger:zip_left": "64110", "tiger:name_type": "Blvd", "tiger:name_direction_prefix": null, "tiger:name_base": "Brush Creek", "tiger:county": "Jackson, MO", "tiger:cfcc": "A41", "surface": "asphalt", "oneway": "yes", "old_ref": null, "lanes": "4", "highway": "secondary" }, "geometry": { "type": "LineString", "coordinates": [ [ -94.5675753, 39.0418214 ], [ -94.5680553, 39.0417692 ], [ -94.5681457, 39.041759 ] ] } },
{ "type": "Feature", "properties": { "full_id": "w1461768656", "osm_id": "1461768656", "osm_type": "way", "name": "Emanuel Cleaver II Boulevard", "turn:lanes": null, "turn:lanes:forward": null, "turn:lanes:backward": null, "cycleway:forward": null, "cycleway:backward": null, "bus:lanes:forward": null, "bus:lanes:backward": null, "bicycle:lanes:forward": null, "bicycle:lanes:backward": null, "access:lanes:forward": null, "access:lanes:backward": null, "tiger:name_direction_prefix_1": null, "cycleway:both": null, "turn:lanes:both_ways": null, "lanes:forward": null, "lanes:both_ways": null, "lanes:backward": null, "cycleway:right": null, "sidewalk:right": null, "sidewalk:left": null, "tiger:zip_right_1": null, "tiger:zip_left_1": null, "tiger:reviewed": null, "tiger:name_type_1": null, "tiger:name_base_1": null, "name_1": null, "tiger:zip_right": "64110", "tiger:zip_left": "64110", "tiger:name_type": "Blvd", "tiger:name_direction_prefix": null, "tiger:name_base": "Brush Creek", "tiger:county": "Jackson, MO", "tiger:cfcc": "A41", "surface": "asphalt", "oneway": "yes", "old_ref": null, "lanes": null, "highway": "secondary" }, "geometry": { "type": "LineString", "coordinates": [ [ -94.5681457, 39.041759 ], [ -94.5684087, 39.041743 ] ] } },
{ "type": "Feature", "properties": { "full_id": "w1461768657", "osm_id": "1461768657", "osm_type": "way", "name": "Emanuel Cleaver II Boulevard", "turn:lanes": "left|through|through|none", "turn:lanes:forward": null, "turn:lanes:backward": null, "cycleway:forward": null, "cycleway:backward": null, "bus:lanes:forward": null, "bus:lanes:backward": null, "bicycle:lanes:forward": null, "bicycle:lanes:backward": null, "access:lanes:forward": null, "access:lanes:backward": null, "tiger:name_direction_prefix_1": null, "cycleway:both": null, "turn:lanes:both_ways": null, "lanes:forward": null, "lanes:both_ways": null, "lanes:backward": null, "cycleway:right": null, "sidewalk:right": null, "sidewalk:left": null, "tiger:zip_right_1": null, "tiger:zip_left_1": null, "tiger:reviewed": null, "tiger:name_type_1": null, "tiger:name_base_1": null, "name_1": null, "tiger:zip_right": "64110", "tiger:zip_left": "64110", "tiger:name_type": "Blvd", "tiger:name_direction_prefix": null, "tiger:name_base": "Brush Creek", "tiger:county": "Jackson, MO", "tiger:cfcc": "A41", "surface": "asphalt", "oneway": "yes", "old_ref": null, "lanes": "4", "highway": "secondary" }, "geometry": { "type": "LineString", "coordinates": [ [ -94.5672944, 39.0418519 ], [ -94.5675753, 39.0418214 ] ] } }
]
}
