{
"type": "FeatureCollection",
"name": "snap_grocery_stores",
"crs": { "type": "name", "properties": { "name": "urn:ogc:def:crs:OGC:1.3:CRS84" } },
"features": [
{ "type": "Feature", "properties": { "StoreName": "Afghan International Market LLC", "StoreType": "Medium Grocery Store" }, "geometry": { "type": "Point", "coordinates": [ -94.52926, 39.11304 ] } },
{ "type": "Feature", "properties": { "StoreName": "Afro-caribbean Food Market", "StoreType": "Small Grocery Store" }, "geometry": { "type": "Point", "coordinates": [ -94.5097, 38.92149 ] } },
{ "type": "Feature", "properties": { "StoreName": "Al Hallal Llc", "StoreType": "Medium Grocery Store" }, "geometry": { "type": "Point", "coordinates": [ -94.54506, 39.10589 ] } },
{ "type": "Feature", "properties": { "StoreName": "Al Rahman Mediterranean Market", "StoreType": "Medium Grocery Store" }, "geometry": { "type": "Point", "coordinates": [ -94.55097, 39.10639 ] } },
{ "type": "Feature", "properties": { "StoreName": "ALDI 46061", "StoreType": "Supermarket" }, "geometry": { "type": "Point", "coordinates": [ -94.4494, 39.05045 ] } },
{ "type": "Feature", "properties": { "StoreName": "ALDI 46091", "StoreType": "Supermarket" }, "geometry": { "type": "Point", "coordinates": [ -94.50817, 39.10484 ] } },
{ "type": "Feature", "properties": { "StoreName": "ALDI 46081", "StoreType": "Supermarket" }, "geometry": { "type": "Point", "coordinates": [ -94.27245, 39.01325 ] } },
{ "type": "Feature", "properties": { "StoreName": "ALDI 46057", "StoreType": "Supermarket" }, "geometry": { "type": "Point", "coordinates": [ -94.36209, 38.90079 ] } },
{ "type": "Feature", "properties": { "StoreName": "ALDI 46064", "StoreType": "Supermarket" }, "geometry": { "type": "Point", "coordinates": [ -94.50812, 38.93423 ] } },
{ "type": "Feature", "properties": { "StoreName": "ALDI 46058", "StoreType": "Supermarket" }, "geometry": { "type": "Point", "coordinates": [ -94.38758, 39.07813 ] } },
{ "type": "Feature", "properties": { "StoreName": "ALDI 46078", "StoreType": "Supermarket" }, "geometry": { "type": "Point", "coordinates": [ -94.57462, 39.01078 ] } },
{ "type": "Feature", "properties": { "StoreName": "ALDI 46093", "StoreType": "Supermarket" }, "geometry": { "type": "Point", "coordinates": [ -94.47388, 38.99464 ] } },
{ "type": "Feature", "properties": { "StoreName": "ALDI 46092", "StoreType": "Supermarket" }, "geometry": { "type": "Point", "coordinates": [ -94.55354, 39.05664 ] } },
{ "type": "Feature", "properties": { "StoreName": "Aldi 46006", "StoreType": "Supermarket" }, "geometry": { "type": "Point", "coordinates": [ -94.39314, 38.92566 ] } },
{ "type": "Feature", "properties": { "StoreName": "ALDI 75061 75061", "StoreType": "Supermarket" }, "geometry": { "type": "Point", "coordinates": [ -94.59428, 38.99221 ] } },
{ "type": "Feature", "properties": { "StoreName": "ALDI 78095 78095", "StoreType": "Supermarket" }, "geometry": { "type": "Point", "coordinates": [ -94.56343, 39.10489 ] } },
{ "type": "Feature", "properties": { "StoreName": "All Halal Market", "StoreType": "Medium Grocery Store" }, "geometry": { "type": "Point", "coordinates": [ -94.49271, 38.95178 ] } },
{ "type": "Feature", "properties": { "StoreName": "Asian Grocery Store", "StoreType": "Small Grocery Store" }, "geometry": { "type": "Point", "coordinates": [ -94.53905, 39.10563 ] } },
{ "type": "Feature", "properties": { "StoreName": "Asin Market", "StoreType": "Small Grocery Store" }, "geometry": { "type": "Point", "coordinates": [ -94.53861, 39.11301 ] } },
{ "type": "Feature", "properties": { "StoreName": "Baraka Market", "StoreType": "Medium Grocery Store" }, "geometry": { "type": "Point", "coordinates": [ -94.56261, 39.10637 ] } },
{ "type": "Feature", "properties": { "StoreName": "Buckner Thrift Way", "StoreType": "Medium Grocery Store" }, "geometry": { "type": "Point", "coordinates": [ -94.19796, 39.1386 ] } },
{ "type": "Feature", "properties": { "StoreName": "Buckner Thriftway Store", "StoreType": "Supermarket" }, "geometry": { "type": "Point", "coordinates": [ -94.19796, 39.1386 ] } },
{ "type": "Feature", "properties": { "StoreName": "Buckner Thriftway Store", "StoreType": "Supermarket" }, "geometry": { "type": "Point", "coordinates": [ -94.19796, 39.1386 ] } },
{ "type": "Feature", "properties": { "StoreName": "Carniceria El Torito 1", "StoreType": "Supermarket" }, "geometry": { "type": "Point", "coordinates": [ -94.43629, 39.05061 ] } },
{ "type": "Feature", "properties": { "StoreName": "Carniceria El Torito LLC # 1", "StoreType": "Large Grocery Store" }, "geometry": { "type": "Point", "coordinates": [ -94.52419, 39.11261 ] } },
{ "type": "Feature", "properties": { "StoreName": "Chinatown Food Market", "StoreType": "Supermarket" }, "geometry": { "type": "Point", "coordinates": [ -94.58115, 39.11094 ] } },
{ "type": "Feature", "properties": { "StoreName": "Chrisman Plaza Apple Market", "StoreType": "Supermarket" }, "geometry": { "type": "Point", "coordinates": [ -94.40842, 39.101 ] } },
{ "type": "Feature", "properties": { "StoreName": "City Market", "StoreType": "Farmers' Market" }, "geometry": { "type": "Point", "coordinates": [ -94.58235, 39.10849 ] } },
{ "type": "Feature", "properties": { "StoreName": "Consentino's Sun Fresh 161", "StoreType": "Supermarket" }, "geometry": { "type": "Point", "coordinates": [ -94.3648, 39.12305 ] } },
{ "type": "Feature", "properties": { "StoreName": "Convenience Grocery Llc", "StoreType": "Medium Grocery Store" }, "geometry": { "type": "Point", "coordinates": [ -94.55084, 39.10566 ] } },
{ "type": "Feature", "properties": { "StoreName": "Cosentino's Apple Market 70", "StoreType": "Supermarket" }, "geometry": { "type": "Point", "coordinates": [ -94.43829, 39.04343 ] } },
{ "type": "Feature", "properties": { "StoreName": "Cosentino's Apple Market 137", "StoreType": "Supermarket" }, "geometry": { "type": "Point", "coordinates": [ -94.44676, 39.00733 ] } },
{ "type": "Feature", "properties": { "StoreName": "Cosentino's Price Chopper 106", "StoreType": "Supermarket" }, "geometry": { "type": "Point", "coordinates": [ -94.48312, 39.00967 ] } },
{ "type": "Feature", "properties": { "StoreName": "Cosentino's Price Chopper 104", "StoreType": "Supermarket" }, "geometry": { "type": "Point", "coordinates": [ -94.27278, 39.0064 ] } },
{ "type": "Feature", "properties": { "StoreName": "Cosentino's Price Chopper 105", "StoreType": "Supermarket" }, "geometry": { "type": "Point", "coordinates": [ -94.5143, 39.10543 ] } },
{ "type": "Feature", "properties": { "StoreName": "Cosentino's Price Chopper 109", "StoreType": "Supermarket" }, "geometry": { "type": "Point", "coordinates": [ -94.27166, 39.03351 ] } },
{ "type": "Feature", "properties": { "StoreName": "Cosentino's Price Chopper 157", "StoreType": "Supermarket" }, "geometry": { "type": "Point", "coordinates": [ -94.35805, 38.98074 ] } },
{ "type": "Feature", "properties": { "StoreName": "Cosentino's Price Chopper 171", "StoreType": "Supermarket" }, "geometry": { "type": "Point", "coordinates": [ -94.3817, 38.85033 ] } },
{ "type": "Feature", "properties": { "StoreName": "Cosentino's Sun Fresh 448", "StoreType": "Supermarket" }, "geometry": { "type": "Point", "coordinates": [ -94.59485, 39.05466 ] } },
{ "type": "Feature", "properties": { "StoreName": "Cosentinos 154", "StoreType": "Supermarket" }, "geometry": { "type": "Point", "coordinates": [ -94.59069, 39.0131 ] } },
{ "type": "Feature", "properties": { "StoreName": "Cosentinos 144", "StoreType": "Supermarket" }, "geometry": { "type": "Point", "coordinates": [ -94.58911, 39.01572 ] } },
{ "type": "Feature", "properties": { "StoreName": "Cosentinos Price Chopper 325", "StoreType": "Supermarket" }, "geometry": { "type": "Point", "coordinates": [ -94.19607, 39.02367 ] } },
{ "type": "Feature", "properties": { "StoreName": "Cosentionos Downtown Market 284", "StoreType": "Supermarket" }, "geometry": { "type": "Point", "coordinates": [ -94.58307, 39.09859 ] } },
{ "type": "Feature", "properties": { "StoreName": "Crossroads Market 1", "StoreType": "Medium Grocery Store" }, "geometry": { "type": "Point", "coordinates": [ -94.57613, 39.09163 ] } },
{ "type": "Feature", "properties": { "StoreName": "Curts Market", "StoreType": "Small Grocery Store" }, "geometry": { "type": "Point", "coordinates": [ -94.45851, 39.09529 ] } },
{ "type": "Feature", "properties": { "StoreName": "Darsalaam Grocery Store Llc", "StoreType": "Medium Grocery Store" }, "geometry": { "type": "Point", "coordinates": [ -94.54509, 39.10604 ] } },
{ "type": "Feature", "properties": { "StoreName": "Dirty Dons Bargain Center", "StoreType": "Large Grocery Store" }, "geometry": { "type": "Point", "coordinates": [ -94.46606, 39.02232 ] } },
{ "type": "Feature", "properties": { "StoreName": "Discount Groceries & More", "StoreType": "Large Grocery Store" }, "geometry": { "type": "Point", "coordinates": [ -94.52676, 38.87406 ] } },
{ "type": "Feature", "properties": { "StoreName": "Dural Rahma", "StoreType": "Medium Grocery Store" }, "geometry": { "type": "Point", "coordinates": [ -94.53738, 39.10592 ] } },
{ "type": "Feature", "properties": { "StoreName": "Ej African Market 8163378409", "StoreType": "Medium Grocery Store" }, "geometry": { "type": "Point", "coordinates": [ -94.55128, 39.10665 ] } },
{ "type": "Feature", "properties": { "StoreName": "El Paisano De Grandview", "StoreType": "Small Grocery Store" }, "geometry": { "type": "Point", "coordinates": [ -94.52493, 38.90746 ] } },
{ "type": "Feature", "properties": { "StoreName": "Family Grocery, Llc", "StoreType": "Medium Grocery Store" }, "geometry": { "type": "Point", "coordinates": [ -94.53321, 39.11313 ] } },
{ "type": "Feature", "properties": { "StoreName": "Farmers Community Market at Brookside", "StoreType": "Farmers' Market" }, "geometry": { "type": "Point", "coordinates": [ -94.59295, 39.0112 ] } },
{ "type": "Feature", "properties": { "StoreName": "Farms By Amber, Llc", "StoreType": "Farmers' Market" }, "geometry": { "type": "Point", "coordinates": [ -94.42779, 39.03036 ] } },
{ "type": "Feature", "properties": { "StoreName": "Global Produce Market", "StoreType": "Farmers' Market" }, "geometry": { "type": "Point", "coordinates": [ -94.58302, 39.10903 ] } },
{ "type": "Feature", "properties": { "StoreName": "Grain Valley Market Llc", "StoreType": "Large Grocery Store" }, "geometry": { "type": "Point", "coordinates": [ -94.20009, 39.01036 ] } },
{ "type": "Feature", "properties": { "StoreName": "Grateful International Grocery", "StoreType": "Medium Grocery Store" }, "geometry": { "type": "Point", "coordinates": [ -94.49945, 39.0933 ] } },
{ "type": "Feature", "properties": { "StoreName": "Halal Market", "StoreType": "Medium Grocery Store" }, "geometry": { "type": "Point", "coordinates": [ -94.49476, 38.95059 ] } },
{ "type": "Feature", "properties": { "StoreName": "Happy Food Center", "StoreType": "Supermarket" }, "geometry": { "type": "Point", "coordinates": [ -94.53643, 39.06933 ] } },
{ "type": "Feature", "properties": { "StoreName": "Happy Foods", "StoreType": "Supermarket" }, "geometry": { "type": "Point", "coordinates": [ -94.53596, 39.06905 ] } },
{ "type": "Feature", "properties": { "StoreName": "Hilaal Halal Market LLC", "StoreType": "Small Grocery Store" }, "geometry": { "type": "Point", "coordinates": [ -94.54786, 39.10594 ] } },
{ "type": "Feature", "properties": { "StoreName": "Holy Land Halal Market", "StoreType": "Small Grocery Store" }, "geometry": { "type": "Point", "coordinates": [ -94.55384, 39.1064 ] } },
{ "type": "Feature", "properties": { "StoreName": "Hong Kong Supermarket", "StoreType": "Large Grocery Store" }, "geometry": { "type": "Point", "coordinates": [ -94.50699, 39.09377 ] } },
{ "type": "Feature", "properties": { "StoreName": "Huda Foods", "StoreType": "Medium Grocery Store" }, "geometry": { "type": "Point", "coordinates": [ -94.54228, 39.10599 ] } },
{ "type": "Feature", "properties": { "StoreName": "Hung Vuong Market", "StoreType": "Large Grocery Store" }, "geometry": { "type": "Point", "coordinates": [ -94.58084, 39.11003 ] } },
{ "type": "Feature", "properties": { "StoreName": "Huong Que", "StoreType": "Large Grocery Store" }, "geometry": { "type": "Point", "coordinates": [ -94.57829, 39.10991 ] } },
{ "type": "Feature", "properties": { "StoreName": "Independence Farmers Market", "StoreType": "Farmers' Market" }, "geometry": { "type": "Point", "coordinates": [ -94.41721, 39.09375 ] } },
{ "type": "Feature", "properties": { "StoreName": "Independence Farmers Market", "StoreType": "Farmers' Market" }, "geometry": { "type": "Point", "coordinates": [ -94.418, 39.0936 ] } },
{ "type": "Feature", "properties": { "StoreName": "Ivanhoe Farmers Market", "StoreType": "Farmers' Market" }, "geometry": { "type": "Point", "coordinates": [ -94.56146, 39.06805 ] } },
{ "type": "Feature", "properties": { "StoreName": "Ivanhoe Farmers Market", "StoreType": "Farmers' Market" }, "geometry": { "type": "Point", "coordinates": [ -94.5629, 39.05921 ] } },
{ "type": "Feature", "properties": { "StoreName": "Ivanhoe Small Growers Farmers' Market", "StoreType": "Farmers' Market" }, "geometry": { "type": "Point", "coordinates": [ -94.56269, 39.05918 ] } },
{ "type": "Feature", "properties": { "StoreName": "Jay's Grocery & Restaurant LLC", "StoreType": "Medium Grocery Store" }, "geometry": { "type": "Point", "coordinates": [ -94.55077, 39.10616 ] } },
{ "type": "Feature", "properties": { "StoreName": "Joes' Liquor & Convenience", "StoreType": "Small Grocery Store" }, "geometry": { "type": "Point", "coordinates": [ -94.55872, 38.98072 ] } },
{ "type": "Feature", "properties": { "StoreName": "La Familiar", "StoreType": "Small Grocery Store" }, "geometry": { "type": "Point", "coordinates": [ -94.5331, 38.90096 ] } },
{ "type": "Feature", "properties": { "StoreName": "Lamp Campus Community Market", "StoreType": "Farmers' Market" }, "geometry": { "type": "Point", "coordinates": [ -94.56146, 39.06805 ] } },
{ "type": "Feature", "properties": { "StoreName": "Latino Import Products", "StoreType": "Supermarket" }, "geometry": { "type": "Point", "coordinates": [ -94.53692, 39.10581 ] } },
{ "type": "Feature", "properties": { "StoreName": "Leon's IGA", "StoreType": "Supermarket" }, "geometry": { "type": "Point", "coordinates": [ -94.53265, 39.05478 ] } },
{ "type": "Feature", "properties": { "StoreName": "Marhaba Trading Inc", "StoreType": "Medium Grocery Store" }, "geometry": { "type": "Point", "coordinates": [ -94.5561, 39.09895 ] } },
{ "type": "Feature", "properties": { "StoreName": "Marshs Sun Fresh", "StoreType": "Supermarket" }, "geometry": { "type": "Point", "coordinates": [ -94.59381, 39.05356 ] } },
{ "type": "Feature", "properties": { "StoreName": "McGonigles Market", "StoreType": "Supermarket" }, "geometry": { "type": "Point", "coordinates": [ -94.60577, 38.98546 ] } },
{ "type": "Feature", "properties": { "StoreName": "Mediterranean Market", "StoreType": "Medium Grocery Store" }, "geometry": { "type": "Point", "coordinates": [ -94.60368, 39.05034 ] } },
{ "type": "Feature", "properties": { "StoreName": "Midtown Market", "StoreType": "Small Grocery Store" }, "geometry": { "type": "Point", "coordinates": [ -94.58549, 39.05458 ] } },
{ "type": "Feature", "properties": { "StoreName": "Midtown Market", "StoreType": "Small Grocery Store" }, "geometry": { "type": "Point", "coordinates": [ -94.58549, 39.05458 ] } },
{ "type": "Feature", "properties": { "StoreName": "Midtown Market", "StoreType": "Medium Grocery Store" }, "geometry": { "type": "Point", "coordinates": [ -94.58549, 39.05458 ] } },
{ "type": "Feature", "properties": { "StoreName": "Mogadisho Market", "StoreType": "Medium Grocery Store" }, "geometry": { "type": "Point", "coordinates": [ -94.55369, 39.10611 ] } },
{ "type": "Feature", "properties": { "StoreName": "Nature's Own Health Market Westport", "StoreType": "Large Grocery Store" }, "geometry": { "type": "Point", "coordinates": [ -94.5988, 39.04992 ] } },
{ "type": "Feature", "properties": { "StoreName": "Nature's Own Market", "StoreType": "Medium Grocery Store" }, "geometry": { "type": "Point", "coordinates": [ -94.57982, 39.10899 ] } },
{ "type": "Feature", "properties": { "StoreName": "Northeast Farmers' Market", "StoreType": "Farmers' Market" }, "geometry": { "type": "Point", "coordinates": [ -94.5456, 39.10611 ] } },
{ "type": "Feature", "properties": { "StoreName": "O The World Llc", "StoreType": "Large Grocery Store" }, "geometry": { "type": "Point", "coordinates": [ -94.46318, 39.00172 ] } },
{ "type": "Feature", "properties": { "StoreName": "Oak Grove Market 696", "StoreType": "Large Grocery Store" }, "geometry": { "type": "Point", "coordinates": [ -94.12884, 39.01193 ] } },
{ "type": "Feature", "properties": { "StoreName": "One Stop Store LLC", "StoreType": "Small Grocery Store" }, "geometry": { "type": "Point", "coordinates": [ -94.55531, 39.11108 ] } },
{ "type": "Feature", "properties": { "StoreName": "Pichen African Food Store Llc", "StoreType": "Medium Grocery Store" }, "geometry": { "type": "Point", "coordinates": [ -94.53392, 39.10554 ] } },
{ "type": "Feature", "properties": { "StoreName": "Plaza Market", "StoreType": "Medium Grocery Store" }, "geometry": { "type": "Point", "coordinates": [ -94.44803, 39.08792 ] } },
{ "type": "Feature", "properties": { "StoreName": "Price Chopper 16", "StoreType": "Supermarket" }, "geometry": { "type": "Point", "coordinates": [ -94.52471, 38.90366 ] } },
{ "type": "Feature", "properties": { "StoreName": "Price Chopper 17", "StoreType": "Supermarket" }, "geometry": { "type": "Point", "coordinates": [ -94.52339, 38.95295 ] } },
{ "type": "Feature", "properties": { "StoreName": "Price Chopper 18", "StoreType": "Supermarket" }, "geometry": { "type": "Point", "coordinates": [ -94.59506, 38.9752 ] } },
{ "type": "Feature", "properties": { "StoreName": "Price Chopper 43", "StoreType": "Supermarket" }, "geometry": { "type": "Point", "coordinates": [ -94.33079, 38.90228 ] } },
{ "type": "Feature", "properties": { "StoreName": "Price Chopper 17", "StoreType": "Supermarket" }, "geometry": { "type": "Point", "coordinates": [ -94.52363, 38.95296 ] } },
{ "type": "Feature", "properties": { "StoreName": "Raytown Farmers Market", "StoreType": "Farmers' Market" }, "geometry": { "type": "Point", "coordinates": [ -94.46255, 39.01048 ] } },
{ "type": "Feature", "properties": { "StoreName": "River Bluff Farmers Market FFAB", "StoreType": "Farmers' Market" }, "geometry": { "type": "Point", "coordinates": [ -94.36946, 39.15224 ] } },
{ "type": "Feature", "properties": { "StoreName": "San Antonio Carniceria Y Tortilleria", "StoreType": "Medium Grocery Store" }, "geometry": { "type": "Point", "coordinates": [ -94.54635, 39.1062 ] } },
{ "type": "Feature", "properties": { "StoreName": "San Antonio Meat Market Llc", "StoreType": "Large Grocery Store" }, "geometry": { "type": "Point", "coordinates": [ -94.54664, 39.10648 ] } },
{ "type": "Feature", "properties": { "StoreName": "Save A Lot 1", "StoreType": "Supermarket" }, "geometry": { "type": "Point", "coordinates": [ -94.51243, 38.91537 ] } },
{ "type": "Feature", "properties": { "StoreName": "Save A Lot 874", "StoreType": "Supermarket" }, "geometry": { "type": "Point", "coordinates": [ -94.37188, 39.12023 ] } },
{ "type": "Feature", "properties": { "StoreName": "Save A Lot 60047", "StoreType": "Supermarket" }, "geometry": { "type": "Point", "coordinates": [ -94.44508, 39.09551 ] } },
{ "type": "Feature", "properties": { "StoreName": "Save A Lot 60049", "StoreType": "Supermarket" }, "geometry": { "type": "Point", "coordinates": [ -94.47304, 39.05932 ] } },
{ "type": "Feature", "properties": { "StoreName": "Save A Lot 60051", "StoreType": "Supermarket" }, "geometry": { "type": "Point", "coordinates": [ -94.57185, 39.06421 ] } },
{ "type": "Feature", "properties": { "StoreName": "Save A Lot 60056", "StoreType": "Supermarket" }, "geometry": { "type": "Point", "coordinates": [ -94.37223, 39.12009 ] } },
{ "type": "Feature", "properties": { "StoreName": "Save A Lot 60053", "StoreType": "Supermarket" }, "geometry": { "type": "Point", "coordinates": [ -94.53651, 39.09388 ] } },
{ "type": "Feature", "properties": { "StoreName": "Save A Lot 60052", "StoreType": "Supermarket" }, "geometry": { "type": "Point", "coordinates": [ -94.50036, 38.96442 ] } },
{ "type": "Feature", "properties": { "StoreName": "SAVE-A-LOT 442", "StoreType": "Supermarket" }, "geometry": { "type": "Point", "coordinates": [ -94.47257, 39.05901 ] } },
{ "type": "Feature", "properties": { "StoreName": "SAVE-A-LOT 444", "StoreType": "Supermarket" }, "geometry": { "type": "Point", "coordinates": [ -94.57169, 39.0645 ] } },
{ "type": "Feature", "properties": { "StoreName": "SAVE-A-LOT 445", "StoreType": "Supermarket" }, "geometry": { "type": "Point", "coordinates": [ -94.49952, 38.96478 ] } },
{ "type": "Feature", "properties": { "StoreName": "SAVE-A-LOT 439", "StoreType": "Supermarket" }, "geometry": { "type": "Point", "coordinates": [ -94.39727, 39.09316 ] } },
{ "type": "Feature", "properties": { "StoreName": "Save-A-Lot 451", "StoreType": "Supermarket" }, "geometry": { "type": "Point", "coordinates": [ -94.53574, 39.0941 ] } },
{ "type": "Feature", "properties": { "StoreName": "SAVE-A-LOT 461", "StoreType": "Supermarket" }, "geometry": { "type": "Point", "coordinates": [ -94.58118, 38.97314 ] } },
{ "type": "Feature", "properties": { "StoreName": "Saver Food N/A", "StoreType": "Supermarket" }, "geometry": { "type": "Point", "coordinates": [ -94.56785, 39.01305 ] } },
{ "type": "Feature", "properties": { "StoreName": "Snyders Supermarket", "StoreType": "Large Grocery Store" }, "geometry": { "type": "Point", "coordinates": [ -94.55051, 39.10633 ] } },
{ "type": "Feature", "properties": { "StoreName": "SoeSoe and Store", "StoreType": "Small Grocery Store" }, "geometry": { "type": "Point", "coordinates": [ -94.55106, 39.10572 ] } },
{ "type": "Feature", "properties": { "StoreName": "Somali Star", "StoreType": "Small Grocery Store" }, "geometry": { "type": "Point", "coordinates": [ -94.5567, 39.09861 ] } },
{ "type": "Feature", "properties": { "StoreName": "Sprouts Farmers Market 723", "StoreType": "Supermarket" }, "geometry": { "type": "Point", "coordinates": [ -94.36037, 38.92665 ] } },
{ "type": "Feature", "properties": { "StoreName": "St John Grocery Store", "StoreType": "Small Grocery Store" }, "geometry": { "type": "Point", "coordinates": [ -94.53321, 39.11296 ] } },
{ "type": "Feature", "properties": { "StoreName": "Sterling Apple Market", "StoreType": "Supermarket" }, "geometry": { "type": "Point", "coordinates": [ -94.44344, 39.10235 ] } },
{ "type": "Feature", "properties": { "StoreName": "Sterling Apple Market Store", "StoreType": "Supermarket" }, "geometry": { "type": "Point", "coordinates": [ -94.44339, 39.10236 ] } },
{ "type": "Feature", "properties": { "StoreName": "Sunfresh 46", "StoreType": "Supermarket" }, "geometry": { "type": "Point", "coordinates": [ -94.58363, 38.92297 ] } },
{ "type": "Feature", "properties": { "StoreName": "Tawakal Halal Store Inc", "StoreType": "Small Grocery Store" }, "geometry": { "type": "Point", "coordinates": [ -94.54524, 39.1061 ] } },
{ "type": "Feature", "properties": { "StoreName": "The City Market", "StoreType": "Farmers' Market" }, "geometry": { "type": "Point", "coordinates": [ -94.5788, 39.1091 ] } },
{ "type": "Feature", "properties": { "StoreName": "The Store", "StoreType": "Medium Grocery Store" }, "geometry": { "type": "Point", "coordinates": [ -94.46438, 39.00242 ] } },
{ "type": "Feature", "properties": { "StoreName": "Three Trails Farmers Market", "StoreType": "Farmers' Market" }, "geometry": { "type": "Point", "coordinates": [ -94.51104, 38.92031 ] } },
{ "type": "Feature", "properties": { "StoreName": "Thriftway", "StoreType": "Supermarket" }, "geometry": { "type": "Point", "coordinates": [ -94.19803, 39.13852 ] } },
{ "type": "Feature", "properties": { "StoreName": "Tour Of Africa Food Market LLC", "StoreType": "Small Grocery Store" }, "geometry": { "type": "Point", "coordinates": [ -94.37911, 39.0774 ] } },
{ "type": "Feature", "properties": { "StoreName": "Trader Joe's 720", "StoreType": "Supermarket" }, "geometry": { "type": "Point", "coordinates": [ -94.60567, 38.97211 ] } },
{ "type": "Feature", "properties": { "StoreName": "Troostwood Market", "StoreType": "Farmers' Market" }, "geometry": { "type": "Point", "coordinates": [ -94.56769, 39.03265 ] } },
{ "type": "Feature", "properties": { "StoreName": "V J Tropical Market Llc", "StoreType": "Small Grocery Store" }, "geometry": { "type": "Point", "coordinates": [ -94.57616, 38.98307 ] } },
{ "type": "Feature", "properties": { "StoreName": "Vitamin Cottage Natural Food Markets Inc U092", "StoreType": "Supermarket" }, "geometry": { "type": "Point", "coordinates": [ -94.35778, 39.0309 ] } },
{ "type": "Feature", "properties": { "StoreName": "Waldo Farmers Market", "StoreType": "Farmers' Market" }, "geometry": { "type": "Point", "coordinates": [ -94.59351, 38.98499 ] } },
{ "type": "Feature", "properties": { "StoreName": "Westport Commons Farmers Market", "StoreType": "Farmers' Market" }, "geometry": { "type": "Point", "coordinates": [ -94.58308, 39.05764 ] } },
{ "type": "Feature", "properties": { "StoreName": "Zaytoona", "StoreType": "Large Grocery Store" }, "geometry": { "type": "Point", "coordinates": [ -94.49564, 38.95107 ] } }
]
}
